{
"type": "FeatureCollection",
"name": "faroe_islands_coverage",
"crs": { "type": "name", "properties": { "name": "urn:ogc:def:crs:OGC:1.3:CRS84" } },
"features": [
{ "type": "Feature", "properties": { }, "geometry": { "type": "Polygon", "coordinates": [ [ [ -7.371122628130632, 61.112514000205024 ], [ -7.833015258543576, 61.414520720090422 ], [ -8.177658221236314, 61.759163682783154 ], [ -8.373074334103329, 62.25658651553556 ], [ -7.790379015736227, 62.793092570861369 ], [ -6.69604878368094, 62.942319420687085 ], [ -5.8539829882358, 62.741573777469135 ], [ -5.63724875396511, 62.48575632062505 ], [ -5.656790365251812, 61.695209318572125 ], [ -6.051175611219789, 60.933086478390763 ], [ -6.921665568536496, 60.945522049209565 ], [ -7.371122628130632, 61.112514000205024 ] ] ] } }
]
}
