{
"type": "FeatureCollection",
"name": "luxembourg_coverage",
"crs": { "type": "name", "properties": { "name": "urn:ogc:def:crs:OGC:1.3:CRS84" } },
"features": [
{ "type": "Feature", "properties": { "fid": 1, "value": 1 }, "geometry": { "type": "Polygon", "coordinates": [ [ [ 5.822722051427882, 49.742245958614774 ], [ 5.818618652201889, 49.7456681771014 ], [ 5.819632094395958, 49.747053792842792 ], [ 5.81316486808685, 49.750117414952157 ], [ 5.810879716388047, 49.751979465512491 ], [ 5.785387653905484, 49.790579588366107 ], [ 5.752974925495198, 49.788739520533305 ], [ 5.745585451849417, 49.792250508753774 ], [ 5.731778314153011, 49.832783596616693 ], [ 5.733152922820351, 49.836571646929002 ], [ 5.747124904875581, 49.84778601189393 ], [ 5.741475616133521, 49.849962748362962 ], [ 5.743119649308432, 49.858145845897752 ], [ 5.751463304735875, 49.859690827194349 ], [ 5.746790316814721, 49.871376719552345 ], [ 5.755763715693383, 49.87675752911754 ], [ 5.771083999946046, 49.873389429206462 ], [ 5.773752358956663, 49.876646081037919 ], [ 5.731467303391088, 49.895356196607374 ], [ 5.730623162586107, 49.902336147514127 ], [ 5.756250029305088, 49.917938191442545 ], [ 5.767520867611218, 49.961830707454375 ], [ 5.773807767525985, 49.965574421095369 ], [ 5.801624099039941, 49.967089042960581 ], [ 5.805413823235111, 49.974097059948612 ], [ 5.808713722321302, 49.97658236936131 ], [ 5.828158107849977, 49.983270611788328 ], [ 5.811751833105264, 50.011440271582146 ], [ 5.814646524642717, 50.016856889147604 ], [ 5.850756001758847, 50.031056162577116 ], [ 5.848814186496428, 50.035178360607937 ], [ 5.850251962165679, 50.039452168762317 ], [ 5.859769823455172, 50.04642065359112 ], [ 5.847968100326333, 50.056303697817249 ], [ 5.847024961798791, 50.060721225857534 ], [ 5.853631481432685, 50.071293888485847 ], [ 5.856660970911065, 50.073524568799094 ], [ 5.880001433209897, 50.082054741560654 ], [ 5.887717489730472, 50.113150951820629 ], [ 5.891727857247983, 50.116534273659447 ], [ 5.953535844005907, 50.134574478965625 ], [ 5.956238290110644, 50.173198965604492 ], [ 5.961457513403118, 50.177345302978097 ], [ 6.022967372967559, 50.187668715295757 ], [ 6.031535269085, 50.184386583096583 ], [ 6.038074434542262, 50.167199040263355 ], [ 6.058796379481528, 50.159494036859897 ], [ 6.071919097219181, 50.161213107362364 ], [ 6.076110761277536, 50.173312897173382 ], [ 6.085348765689754, 50.17655731052087 ], [ 6.122930430322504, 50.167713453967693 ], [ 6.12703521839135, 50.161851057834618 ], [ 6.124117130422307, 50.157074375971796 ], [ 6.130899434511107, 50.153505779454733 ], [ 6.132319412184737, 50.147565894115353 ], [ 6.122988560291598, 50.138406717956364 ], [ 6.141921385789072, 50.132250438595996 ], [ 6.144949827805672, 50.126143743928637 ], [ 6.136515132685324, 50.11585403227155 ], [ 6.143084714994227, 50.104982368627319 ], [ 6.138917725220069, 50.099120198938728 ], [ 6.136809624518355, 50.098636631535463 ], [ 6.139886892331317, 50.095391591864377 ], [ 6.134390634748899, 50.088565620172346 ], [ 6.127753066746076, 50.088278187838355 ], [ 6.129220421988924, 50.080988215387535 ], [ 6.131292766431404, 50.077596057188629 ], [ 6.13550948818414, 50.070291547699767 ], [ 6.126694162009828, 50.063457021333328 ], [ 6.131767256688519, 50.060542932344198 ], [ 6.137282695457485, 50.03231373772924 ], [ 6.150726010469498, 50.02649925043881 ], [ 6.152396338880657, 50.020051992774242 ], [ 6.146130336386846, 50.014725500415352 ], [ 6.152725701816289, 50.013391487346816 ], [ 6.156286410923602, 50.006466716226015 ], [ 6.148779166097192, 49.999782499193145 ], [ 6.176999521126107, 49.988704582402811 ], [ 6.179994996918731, 49.983461015276795 ], [ 6.173524182979057, 49.970774442372004 ], [ 6.178826850589398, 49.964240262739587 ], [ 6.184642114556987, 49.972514690783115 ], [ 6.191565997707517, 49.975138256320847 ], [ 6.197724999119878, 49.971814843679077 ], [ 6.202945080998838, 49.95916248825597 ], [ 6.208483567796923, 49.959814683914786 ], [ 6.227290738415722, 49.954520078585659 ], [ 6.231407841808139, 49.949799569506141 ], [ 6.230828936508361, 49.928137116461428 ], [ 6.235678871038803, 49.922842960611561 ], [ 6.239403176471509, 49.91917882583553 ], [ 6.241223339494543, 49.902771315577198 ], [ 6.298700908886572, 49.87200730229813 ], [ 6.309525695480654, 49.874521014153501 ], [ 6.318553918117067, 49.871549539279584 ], [ 6.329646337058529, 49.846962470520324 ], [ 6.335187289184811, 49.851985188691586 ], [ 6.339869161672415, 49.853825039873044 ], [ 6.362988879476748, 49.855946053531191 ], [ 6.36946960641937, 49.854240931568569 ], [ 6.403520137659155, 49.825678065213303 ], [ 6.43201074858632, 49.815741755903396 ], [ 6.451016596638036, 49.816508710078239 ], [ 6.466772307597772, 49.826495116826287 ], [ 6.475914402993724, 49.826824852240946 ], [ 6.509361555264946, 49.809895063298832 ], [ 6.513915751833627, 49.815887609440281 ], [ 6.5240271127094, 49.817633535527932 ], [ 6.534552842418026, 49.813051354354215 ], [ 6.536147546572499, 49.806553251946553 ], [ 6.516331547534575, 49.790140745682095 ], [ 6.522559839246173, 49.786528040121276 ], [ 6.524131631713959, 49.781163353051497 ], [ 6.518656359632672, 49.77409954661497 ], [ 6.526038542085977, 49.764542662136101 ], [ 6.524401375988945, 49.759148044244647 ], [ 6.50878289123833, 49.750293974045782 ], [ 6.509943429010209, 49.734804175613569 ], [ 6.523043677881407, 49.72565833165681 ], [ 6.524019050414299, 49.720411926824468 ], [ 6.516624981350541, 49.718188763256606 ], [ 6.509021041819839, 49.719157188611085 ], [ 6.512946158680216, 49.71391578570168 ], [ 6.511326667262975, 49.708598786328409 ], [ 6.437565323476663, 49.665834376782286 ], [ 6.436368659855158, 49.663779828871846 ], [ 6.445756295825319, 49.659853259744729 ], [ 6.448547954887829, 49.654602463826208 ], [ 6.429549919661823, 49.618988859648994 ], [ 6.427757776755225, 49.617188726804187 ], [ 6.385214525719547, 49.591110153613002 ], [ 6.389693716332829, 49.577497848202356 ], [ 6.384474142760497, 49.572174864366872 ], [ 6.372853069886904, 49.570446382249308 ], [ 6.388990696800493, 49.55989035557711 ], [ 6.389943320282909, 49.554331442182928 ], [ 6.365469160576082, 49.528942544728352 ], [ 6.3819658321241, 49.467172989502252 ], [ 6.366499862002478, 49.455273832219113 ], [ 6.293148168342819, 49.475625208492396 ], [ 6.289102295953035, 49.480708429164864 ], [ 6.289235711057402, 49.481112362903595 ], [ 6.281654738839886, 49.483141149745919 ], [ 6.273401270896395, 49.499608435952283 ], [ 6.241655673387438, 49.507474498245656 ], [ 6.216828784610375, 49.501692635425897 ], [ 6.212831938288848, 49.501334893982026 ], [ 6.176740360149822, 49.505121255207641 ], [ 6.164028036593771, 49.499930563587903 ], [ 6.168537209358554, 49.494586931110192 ], [ 6.165367013309972, 49.488335537195397 ], [ 6.145274266793598, 49.482327352798684 ], [ 6.138392493808102, 49.482750745406598 ], [ 6.133702575835867, 49.484926135122087 ], [ 6.130816554396446, 49.472517081971986 ], [ 6.126462928310094, 49.468992134581121 ], [ 6.107535647433379, 49.464266131014632 ], [ 6.107876392369361, 49.452476633171251 ], [ 6.097989047391915, 49.448341601329432 ], [ 6.061088900242782, 49.459922274335547 ], [ 6.047787372744672, 49.445028174660109 ], [ 6.039684151434169, 49.443016956213768 ], [ 6.001255801437799, 49.45120773632906 ], [ 5.98462486152593, 49.446454666093608 ], [ 5.975303105863373, 49.451972097417872 ], [ 5.97867815013377, 49.458684934313482 ], [ 5.971141574097908, 49.460566121336299 ], [ 5.966717366541508, 49.464561362244879 ], [ 5.965089105740736, 49.487989269836909 ], [ 5.938244879199081, 49.49461548313954 ], [ 5.865935324677502, 49.494997049993117 ], [ 5.86085511730745, 49.496350018961074 ], [ 5.830374327404355, 49.516657297319242 ], [ 5.829347607570608, 49.522066386491908 ], [ 5.836925623383403, 49.530517489313041 ], [ 5.83299919200067, 49.536159360415702 ], [ 5.820160286852525, 49.532436546025451 ], [ 5.81343057560994, 49.532840417154958 ], [ 5.803866883243956, 49.537126531534824 ], [ 5.803432852925009, 49.544320754016084 ], [ 5.864747513880745, 49.5766429477885 ], [ 5.864186260465732, 49.582885821264369 ], [ 5.850414561377931, 49.582008780132767 ], [ 5.842929211836028, 49.58570618542786 ], [ 5.840320027154354, 49.595373220396759 ], [ 5.843263276521971, 49.599876419617893 ], [ 5.869540025844353, 49.611396170223905 ], [ 5.876477672632888, 49.634178081974959 ], [ 5.880781320735846, 49.637500725987131 ], [ 5.89809615388135, 49.641826929356142 ], [ 5.894321537529343, 49.650253607586194 ], [ 5.894763809914897, 49.653502492852411 ], [ 5.90020111232844, 49.660637361817763 ], [ 5.861916691085159, 49.671695965532457 ], [ 5.857804578883703, 49.675845543434193 ], [ 5.858054441585371, 49.693252603770681 ], [ 5.859680275363435, 49.696103995799078 ], [ 5.876822991029863, 49.709321980468722 ], [ 5.861833519945495, 49.72163577943553 ], [ 5.826505368277969, 49.718830678611035 ], [ 5.818813840252878, 49.724003048665161 ], [ 5.823291065251619, 49.742136380458277 ], [ 5.822722051427882, 49.742245958614774 ] ] ] } }
]
}
