{"type": "FeatureCollection", "features": [{"type": "Feature", "geometry": {"type": "Polygon", "coordinates": [[[-177.63366326895851, 51.88962470698056], [-176.63342643470057, 52.446049956290125], [-176.18578786214155, 52.134802357279284], [-175.15583619734386, 52.676089329577174], [-174.71857241972316, 52.357476411928396], [-174.19307759477462, 52.621504564047925], [-173.76530176824778, 52.29858145610062], [-172.6939933873156, 52.812991872782746], [-171.86801026434256, 52.1505426658658], [-172.93350152501222, 51.646550952619705], [-173.3457961430202, 51.972015585825126], [-173.86797866931394, 51.713760115972434], [-174.2895971446855, 52.0351146158599], [-175.31425310741017, 51.50542179071734], [-175.74630455204246, 51.819672161317804], [-176.74288375374763, 51.274857890397946], [-177.18453605938114, 51.581864090739145], [-177.67226052653146, 51.303282857183596], [-178.1221844664544, 51.605797135503735], [-179.0, 51.08254032045685], [-179.0, 52.179038395741024], [-178.5796767762114, 51.90897109852746], [-178.09078397356598, 52.19337524426953], [-177.63366326895851, 51.88962470698056]]]}, "properties": {}}, {"type": "Feature", "geometry": {"type": "Polygon", "coordinates": [[[-171.73474500439843, 52.732259825964476], [-170.0490311339061, 53.46655377460937], [-169.65095388252206, 53.124033352334074], [-166.08701458928908, 54.48761751044918], [-162.23716852670452, 55.7198082131556], [-162.58407479231468, 56.095585352079105], [-159.12305023394407, 57.02198309913849], [-159.44604780559908, 57.41039581219492], [-157.99081724264153, 57.753819849715825], [-158.30574174387323, 58.14545563500323], [-159.04503754947834, 57.973656282886914], [-159.3772857910095, 58.36407707162967], [-160.11561470327848, 58.184798017917906], [-160.46412652688957, 58.572233494952734], [-161.92838928768316, 58.19387259906547], [-163.07476689932673, 59.33782785191861], [-162.32618278248484, 59.538005072729675], [-162.71922905492906, 59.91890222944193], [-164.21989860746095, 59.50778655126003], [-164.6390318113253, 59.88329837182374], [-166.10938313646326, 59.44730861428378], [-166.5519528013163, 59.81547728511806], [-167.2761737588599, 59.58755077414334], [-168.2089836276494, 60.31517927092978], [-166.72302737165347, 60.780821361480854], [-166.26312978030515, 60.41166131025513], [-165.5126563401516, 60.63293843053346], [-166.9106351488903, 61.746672265206655], [-166.1250168358925, 61.97420887145645], [-166.6100842725989, 62.346363759655915], [-164.98425278773894, 62.79343817275221], [-165.4681961698532, 63.171312766976854], [-162.89996240764208, 63.812472544973794], [-163.3698696638862, 64.19812729911014], [-164.24959396582477, 63.98647479476076], [-164.74564375948563, 64.36887989597062], [-166.4774988877283, 63.92143216750295], [-167.55063627664893, 64.66688463289066], [-168.4084029413561, 64.42739137949799], [-168.97941164628807, 64.79503375207067], [-168.1142359036969, 65.03850867225337], [-169.28744875913836, 65.7715328847926], [-171.8669855029622, 65.00198420227899], [-171.2509674507686, 64.64820453970599], [-173.66011878517267, 63.845133988617754], [-176.98737260163853, 65.52393220272313], [-178.53127457187352, 64.92493726860452], [-179.0, 65.13041816832379], [-179.0, 65.34768822415877], [-178.49557855424405, 65.54984428708994], [-179.0, 65.76598386650991], [-179.0, 65.96191444945326], [-178.4549380135526, 66.1749060175439], [-179.0, 66.403029541665], [-179.0, 66.57751137458732], [-178.41204135710427, 66.8013445344841], [-179.0, 67.04152355464979], [-179.0, 67.19445036766614], [-178.3666954051068, 67.4291267995899], [-179.0, 67.68143399589475], [-179.0, 67.81270255917175], [-178.31868428165785, 68.05821921353666], [-179.0, 68.43223887332714], [-177.35729230830242, 68.99334902251577], [-173.47986418971269, 67.29612819514603], [-172.56816601361834, 67.56999503248694], [-170.53719445580452, 66.49990217366381], [-169.6235831907069, 66.75471912400849], [-168.38787057801696, 66.02023641666409], [-164.60754724170994, 66.9458545918846], [-166.3738093299078, 68.09403677995634], [-167.38140692832127, 67.85885352706276], [-168.02719055049397, 68.2352056137114], [-167.00874025560907, 68.47489456786559], [-167.6643302218877, 68.85205693895875], [-165.52881147268863, 69.3214116655149], [-164.8979584829987, 68.935110139961], [-163.814214577149, 69.15331356913113], [-164.43094278903965, 69.54410037408411], [-163.30427275889, 69.76023513531264], [-163.9300125853455, 70.15364865723164], [-157.83731031671948, 71.1350964631462], [-158.38895860158092, 71.54891960266298], [-155.72387466259215, 71.88793070329402], [-155.22315764958492, 71.46603335320337], [-153.88431119479017, 71.61672687774809], [-153.43316395812542, 71.19037218752285], [-152.1008706137101, 71.32765877104953], [-151.31201359929642, 70.46686280213656], [-147.37867569270568, 70.80082804146177], [-147.09269439195248, 70.36206242115345], [-143.12781040073915, 70.59858177971248], [-142.9412141322087, 70.15428901053944], [-141.63019086790243, 70.21118105254993], [-141.48078811326562, 69.76592528173256], [-137.6000812366622, 69.87238692510283], [-137.54237330758022, 69.42510736735956], [-136.2756331236874, 69.43995309027524], [-136.30461495916077, 69.88759017516344], [-132.39992138747644, 69.87236658435519], [-132.33953484220146, 70.3202227924118], [-131.01155821511026, 70.29418667485344], [-130.91690397449045, 70.74195425621039], [-126.86684174870369, 70.59832779543498], [-127.05354160026252, 70.15404030522197], [-125.75607046000168, 70.08729933570756], [-125.53989010381692, 70.52994551489375], [-122.90207523812525, 70.36170719485828], [-123.17541366377104, 69.92304992353489], [-118.1803103837692, 69.47999736852199], [-117.41090657082155, 70.33431548025088], [-118.68947533243069, 70.46516072095054], [-118.30415826826183, 70.89570783253474], [-122.31749125053432, 71.2374534606475], [-122.61716207131356, 70.79868767433047], [-123.9622774552192, 70.89024577460331], [-123.69336153112634, 71.33131840089237], [-126.47245626818265, 71.48638369184927], [-124.69790391934207, 74.60922072865156], [-123.02650652386271, 74.52156923232265], [-122.66358280297848, 74.96517536677455], [-116.03166971427703, 74.47466242756879], [-115.46776825153206, 74.90127898871427], [-124.05018978895329, 75.50000082182453], [-122.47433821289816, 77.28519830804713], [-120.46852771192243, 77.17845758074704], [-119.93451520304771, 77.61958701193383], [-117.90010432086618, 77.49311140048829], [-116.56791625255882, 78.36296956905397], [-114.44646195953054, 78.21045623291712], [-112.75361325208792, 79.06194899739356], [-108.42869814697534, 78.68288839683925], [-109.43399831575752, 78.27222936600114], [-103.67260806254374, 77.61970601438534], [-102.53484187177135, 78.00577257194466], [-106.39574413804048, 78.47036053221726], [-105.2615401082983, 78.8695799048093], [-107.36054919032165, 79.08928171997916], [-104.93331934951131, 79.89308354325613], [-102.72576748229001, 79.65594158296183], [-98.13812360281044, 80.78762939860947], [-94.4074681357612, 81.50405073531907], [-84.80463164778328, 82.80054339401354], [-82.56703921494928, 82.44156801379182], [-76.60504275657789, 82.96429688540901], [-74.74200958358401, 82.56872140325021], [-60.93998972069007, 83.28804270240303], [-59.03108809985332, 82.39946839628028], [-52.13300551632809, 82.56826046239044], [-52.60315113143407, 83.02434187177174], [-48.82222386521956, 83.07008655906151], [-49.09434317722579, 83.52910313319215], [-45.008186280771994, 83.54558430442829], [-45.00168512042283, 59.336612461369086], [-45.003078489823764, 59.767492421684594], [-45.856781764600676, 59.764261182059954], [-45.86976127590649, 60.195919721766984], [-47.60421604900286, 60.16973365897461], [-47.64422431411882, 60.60177394132944], [-48.52310153953771, 60.578499145203814], [-48.57800786176657, 61.0109439946569], [-49.468799603875524, 60.98052858526715], [-49.539438460282064, 61.413224409195564], [-50.44196286591375, 61.37544517423118], [-50.71229760689827, 62.67599069441728], [-51.65608937311178, 62.6289582278972], [-52.00300838170322, 63.933107771928164], [-52.99102153430236, 63.87585465885347], [-54.86864554855059, 68.6893040115455], [-53.655354291867475, 68.76114166676197], [-53.8439213126652, 69.20097064139333], [-55.0826275100664, 69.12748512026812], [-57.20342721236985, 72.65560052741449], [-58.63027443462577, 74.41979331650766], [-59.93405608061732, 75.73913921006152], [-63.43724047076948, 75.47799612487242], [-64.0279471508682, 75.90856895126777], [-67.48141195481168, 75.58616787080804], [-68.20059478863988, 76.00526269792732], [-69.90657229760062, 75.81986810086137], [-74.47756434706845, 77.84822935764379], [-78.10559490929504, 77.37483611379312], [-75.95836411501568, 76.60181478347727], [-77.61393482133516, 76.36185299329254], [-76.60233835978073, 75.97635892812126], [-78.1734271807231, 75.73265983471322], [-77.1907811552152, 75.35010774692806], [-78.6851896110101, 75.10306602182996], [-77.73046894669552, 74.72330053425094], [-80.53304694684141, 74.21423242128454], [-79.59140182228903, 73.84491989361325], [-78.2307576510757, 74.09766052821426], [-73.49453563595436, 71.76880856812457], [-72.21485384922472, 71.97934431924124], [-70.94105700990106, 71.17404914890469], [-69.67548079369246, 71.36635920831434], [-69.10081779667735, 70.95677927651116], [-67.83217113411358, 71.13582174938188], [-65.40667108627852, 69.04991457629616], [-66.56810382933709, 68.8898632827567], [-66.12336031763267, 68.47578613951573], [-64.98164268097254, 68.63244211663701], [-64.17754243581983, 67.79253930709424], [-63.058954412291925, 67.93469899453004], [-62.69890661801307, 67.51117662191842], [-61.58576611897134, 67.64229708063816], [-60.63952625545886, 66.36113270594946], [-61.69651970018337, 66.2377992870849], [-61.088195167397075, 65.38961701640577], [-63.10112955193992, 65.13019105317125], [-62.781299281069955, 64.71101592912397], [-63.75606146716897, 64.5730152614575], [-62.816438166226284, 63.322555211600175], [-63.7388898831214, 63.185234713878366], [-63.13571346693094, 62.356238345846705], [-64.90137693501691, 62.07207191706106], [-64.28774932804332, 61.25261730644153], [-65.1373696144352, 61.105632942586], [-65.45062307619199, 61.51292227587687], [-66.29838275911257, 61.3581135630971], [-66.63192338946006, 61.76267452783306], [-67.48042321711327, 61.59935554048919], [-67.83464926545274, 62.0009271810819], [-68.68303423322742, 61.82901317941151], [-69.0583005102263, 62.22732789370508], [-69.90567059164135, 62.04674662366615], [-70.30228310382459, 62.44153088828609], [-71.1476959035316, 62.25222357213912], [-72.44056928463158, 63.422639548757125], [-73.30154420386945, 63.217942183727516], [-74.24960081278287, 63.98645439981144], [-75.11445338712194, 63.769148641710395], [-75.61931886780226, 64.14790594850021], [-76.47410332424771, 63.92232825699723], [-75.9610602918189, 63.54723567578057], [-77.61658223326465, 63.08581195142751], [-77.10563764225871, 62.71802420592396], [-76.29239555495872, 62.947689447506754], [-75.80077253854094, 62.57334926994341], [-74.14732834040831, 63.01003253861363], [-73.68537828417587, 62.627484594974796], [-72.8467808987673, 62.83438585641198], [-71.16076179898218, 61.28164165285036], [-70.34531171571227, 61.47038872248085], [-69.96190963242701, 61.07735299570214], [-69.14463426676296, 61.25771267951962], [-68.78110921457983, 60.86129508952456], [-67.96282413817278, 61.0333131480648], [-67.28332011098175, 60.23237146721392], [-68.87302035161402, 59.893738599823216], [-68.53011840725189, 59.498956125048174], [-70.82176490582275, 58.959275079752885], [-71.56582028634791, 59.73180022024925], [-74.53940868150244, 58.9218465686403], [-75.37973902743256, 59.667572463401314], [-76.82798754504144, 59.222595383951486], [-79.18860695244538, 61.035790817432186], [-78.44237348681798, 61.27729284954404], [-78.94408720870571, 61.637393433729116], [-79.69561187730284, 61.39234942831667], [-80.756483394258, 62.10461312069775], [-78.42746639806097, 62.8480192851539], [-79.50903451412978, 63.57261972341535], [-81.8672277383513, 62.80750417246618], [-81.30186249611863, 62.45687363279355], [-83.51721847032805, 61.66169194843734], [-84.68809639877975, 62.33904975566686], [-83.95857702848983, 62.6155827650773], [-84.55992807232344, 62.95256305729117], [-85.29236829547419, 62.672109056715016], [-86.55278060929882, 63.333032703794636], [-87.27381862839565, 63.040684947970625], [-88.60288782613105, 63.68197173267918], [-93.81153804284614, 61.16118299957988], [-93.14244654320179, 60.873680562672284], [-94.30201684938197, 60.22308415138777], [-93.64979454863798, 59.93959737128543], [-94.76344412724772, 59.28566824536277], [-96.07219770275495, 59.83480584372558], [-97.12472253644532, 59.15962576384921], [-98.47078639955608, 59.68037333955643], [-99.46193509007423, 58.98419078411507], [-102.26425248092934, 59.95127377457301], [-103.17201245495856, 59.222595383951486], [-104.62026097256744, 59.667572463401314], [-105.46059131849758, 58.9218465686403], [-108.43417971365209, 59.73180022024925], [-109.17823509417725, 58.959275079752885], [-113.83774954321566, 59.99028631519648], [-114.44297372525925, 59.184885837550105], [-119.29016471375559, 59.9903392933433], [-119.74370604108977, 59.15977664725297], [-128.08726667130188, 59.99044441949178], [-128.2886966242777, 59.13474203807868], [-133.31368092098384, 59.32391756286949], [-133.361739910303, 58.46686241277141], [-131.72778709653517, 58.43014410378195], [-131.81849399064706, 57.57599865828927], [-130.2346459783104, 57.51685618565851], [-130.36287196468635, 56.668036272339485], [-128.82812874400818, 56.58801098294497], [-129.28813050612507, 54.068020176646414], [-131.42518158688915, 54.16999769348886], [-131.38005051242132, 54.589027146012825], [-132.82386192774888, 54.63145459543334], [-132.8510378637112, 54.21180101542598], [-133.5693710673886, 54.22495582055847], [-133.5512695932003, 54.644806096264446], [-134.27624431606668, 54.65278809622746], [-134.25744782906014, 55.49557794308521], [-135.00148816341132, 55.49832047722122], [-135.0015278471588, 56.34493282499109], [-135.76540566787463, 56.3421048060574], [-135.77574768718102, 56.76674299558783], [-136.54966323974546, 56.758127596994534], [-136.6151066819873, 58.03706313636321], [-137.42105218648848, 58.02200985143889], [-137.45559645845822, 58.44983661662118], [-138.2720263314849, 58.428432404525196], [-138.3193415177311, 58.85676791305008], [-139.14615605054726, 58.82882046897157], [-139.2069113322139, 59.257532575318564], [-140.04397562947628, 59.22284746974975], [-140.1188614571954, 59.65179484040872], [-141.8105350641397, 59.56222503727606], [-141.91273332869812, 59.99044441949178], [-142.76493180238774, 59.93541761138657], [-144.46035475944853, 59.806286154582374], [-144.32165296589213, 59.38111284391437], [-145.15562689119014, 59.30800403067417], [-145.4613028857363, 60.156538905919625], [-147.1528982578731, 59.9874958400532], [-146.97482748213062, 59.56738438312295], [-146.1415476340965, 59.65375599583365], [-145.97868197406993, 59.229402563647746], [-146.8037305029015, 59.144102047872494], [-146.97744541128236, 59.56534054827573], [-147.80554176117118, 59.47290303500723], [-147.99590861584502, 59.89314535215248], [-148.82658413832493, 59.793472158696254], [-148.6249574999392, 59.374848747110214], [-151.85633145858318, 58.9224305421038], [-151.38753319539927, 58.10069457153816], [-152.15990973652129, 57.977212059528206], [-151.697291857934, 57.16052803196223], [-153.18708696499147, 56.90528441322077], [-152.94746916510474, 56.501244552310794], [-155.11064814686782, 56.086302879619375], [-154.8532980217995, 55.68855511325868], [-156.2513503227555, 55.39131029951524], [-156.52344999963628, 55.78477746543264], [-157.21841247452306, 55.627272540316284], [-157.50435092701784, 56.018541658707285], [-158.19799533642126, 55.85447334783739], [-159.56520224771845, 55.51245173949505], [-158.96056929536428, 54.74381487831825], [-160.27840903896626, 54.392908277139405], [-160.9071928957117, 55.15185640052079], [-161.56309045991745, 54.96631464368613], [-161.23941116417805, 54.58944139507873], [-163.15677454685888, 54.01311459329784], [-163.4962199295459, 54.38232889622361], [-169.4393392438, 52.200821446524486], [-169.8248318347452, 52.542425977126], [-170.92880226695706, 52.06187449656687], [-171.73474500439843, 52.732259825964476]], [[-101.88285600440192, 77.37536701524064], [-98.53169486496719, 76.85582811024408], [-97.31152233578248, 77.21810848684872], [-100.71196617309734, 77.75352876488903], [-101.88285600440192, 77.37536701524064]], [[-102.80312011092191, 75.34909956089395], [-104.61965718618717, 74.57315307313583], [-106.11203848542992, 74.79746679987784], [-106.92612538753822, 74.39878961648581], [-109.98140986396706, 74.80434766023552], [-111.36893170169594, 73.97805130610621], [-116.02746810941217, 74.47235705909937], [-116.56086187908075, 74.04476478007005], [-113.49437539032633, 73.73532362449728], [-114.07141255190909, 73.3134993168963], [-111.1956678600404, 72.97006256643], [-110.55761508166012, 73.38268360900668], [-109.13503144704957, 73.19045578717542], [-107.7018402834573, 73.99992928546912], [-106.26153460760189, 73.78715546802073], [-105.46247073291322, 74.18282475925814], [-102.65360775606281, 73.71690595985474], [-100.84120624796005, 74.47480116750441], [-99.46315640951104, 74.21572162778908], [-98.47590087705306, 74.58091475973082], [-102.80312011092191, 75.34909956089395]], [[-93.00877468294259, 71.52616490799542], [-90.97108666439279, 70.9137211626653], [-90.00395110749484, 71.23303589523135], [-91.00910551960172, 71.54842824474053], [-90.0040921889306, 71.86965960761326], [-91.04579225922488, 72.1854940441584], [-90.00424371734901, 72.50737067827268], [-91.0808412131652, 72.82233276926272], [-92.11889217028751, 72.49496061920344], [-93.11797232018935, 72.16238300130932], [-92.04132113624775, 71.85836435678715], [-93.00877468294259, 71.52616490799542]], [[-90.93929716524322, 70.2788995465121], [-90.00381942875521, 70.59753470057336], [-90.9709550940111, 70.91117933819764], [-91.905335233976, 70.58699798124293], [-90.93929716524322, 70.2788995465121]], [[-168.10846083172018, 65.03799512922062], [-167.54938342043576, 64.66931632277937], [-166.67833097723403, 64.9025022300292], [-167.22942289707862, 65.27509748615005], [-168.10846083172018, 65.03799512922062]], [[-155.82003049426675, 55.939820072268], [-155.114536746402, 56.08731139355039], [-155.37840812690644, 56.48522967462719], [-154.65579874789768, 56.63059290069442], [-155.18674619408236, 57.429461800710705], [-155.92247391282257, 57.28035072261485], [-155.64498861310486, 56.88225789009626], [-156.36862285884484, 56.72980574570364], [-155.82003049426675, 55.939820072268]], [[-152.90335919839143, 59.20595079600102], [-152.1048400455216, 59.33486365348414], [-152.35515111841718, 59.74473881514975], [-153.16381489431484, 59.61375706237267], [-152.90335919839143, 59.20595079600102]], [[-114.86474657011567, 61.10785688811244], [-114.55278704183881, 61.51352979408756], [-115.40660169250732, 61.66178667890043], [-115.70765066045092, 61.25366667111296], [-114.86474657011567, 61.10785688811244]], [[-109.35344493061139, 77.25155566998292], [-107.52726572819509, 77.04844940276746], [-106.56272775752709, 77.44972891765983], [-108.43300354505304, 77.65965005228536], [-109.35344493061139, 77.25155566998292]], [[-110.23013609163462, 76.83817033614388], [-112.06570957437138, 77.0217799095119], [-112.82849796302337, 76.60258817676066], [-111.03953519747354, 76.4248473018692], [-110.23013609163462, 76.83817033614388]], [[-104.0323781390292, 71.32130055641132], [-101.69010307496346, 70.84384978813021], [-100.1286265481445, 71.58732418547982], [-103.78058228285816, 72.3239410625346], [-104.5304633950143, 71.93838779321877], [-103.29462378174867, 71.70579557855372], [-104.0323781390292, 71.32130055641132]], [[-99.90483382157896, 69.34612751914808], [-97.59839633446715, 70.42887039126315], [-96.76999809884238, 70.78353172469731], [-97.85277049393187, 71.05717903309227], [-100.95049036226871, 69.59902805803355], [-99.90483382157896, 69.34612751914808]], [[-103.78258217148432, 72.32641962282463], [-102.99878591076575, 72.70925203702487], [-104.29918586722448, 72.94332399344073], [-105.06436229908662, 72.55505038737377], [-103.78258217148432, 72.32641962282463]], [[-106.70082132674062, 76.43261717547102], [-105.7565864334357, 76.83030863953853], [-107.52380505687951, 77.04598949723244], [-108.42962814127371, 76.64161384757332], [-106.70082132674062, 76.43261717547102]], [[-88.87654521730535, 73.46405939961706], [-86.50113311885377, 74.0768558733767], [-87.61425837049993, 74.41203665097733], [-89.99541687279749, 73.7859124609871], [-88.87654521730535, 73.46405939961706]], [[-82.87558208935174, 74.30565022824428], [-84.16903848266533, 74.0245319812706], [-83.15662493272404, 73.67237762334291], [-81.87449303929309, 73.94700242117531], [-82.87558208935174, 74.30565022824428]], [[-80.39422361517677, 68.72328589219117], [-79.38381254544272, 68.97773104751494], [-80.09644126761103, 69.3436244067501], [-81.1158528213319, 69.08433926200709], [-80.39422361517677, 68.72328589219117]], [[-81.63082124835117, 67.83696102983528], [-80.26924090427225, 67.11705865261789], [-82.08971980484993, 66.59313264338118], [-81.42778835272529, 66.23822560448068], [-83.15421853284158, 65.70217759789269], [-79.5080215689908, 63.57505798835525], [-78.69282761923665, 63.819954309834806], [-79.25183313584374, 64.18410992361865], [-78.41065009617014, 64.4288382038988], [-78.97941164628804, 64.79503375207067], [-78.11423590369691, 65.03850867225336], [-78.6930058012166, 65.40678274837029], [-76.89009826045718, 65.8863412020904], [-76.32795991448175, 65.50999601103246], [-74.47885241956959, 65.95646772838334], [-75.02137968793832, 66.34075513882182], [-73.07553629007917, 66.77121472987237], [-73.61356171615955, 67.16188742187721], [-72.60042066684419, 67.37119697331028], [-73.14257499030266, 67.76279703206826], [-77.12570959841011, 66.86990740377313], [-78.36959932742415, 67.61877799698374], [-77.38394375860277, 67.86033195007803], [-78.02458083939977, 68.2336847169557], [-79.01998957959127, 67.98763653610598], [-80.39538332304659, 68.72079573833459], [-81.3809642284553, 68.46024089607002], [-80.67307739272191, 68.09972226026224], [-81.63082124835117, 67.83696102983528]], [[-86.531524537725, 68.66116167613771], [-85.60480342764079, 68.9533502256875], [-89.06087154783425, 70.27634779263282], [-89.99630375689156, 69.96319081220494], [-86.531524537725, 68.66116167613771]], [[-86.01439837753702, 75.99907483250561], [-87.27395394445284, 76.33785011221337], [-88.66245685846185, 76.02884299048573], [-87.39711738281137, 75.69767874007472], [-86.01439837753702, 75.99907483250561]], [[-71.55823017085814, 79.70531266288228], [-70.46106872539391, 79.29545992542945], [-68.20523090239496, 79.48336341762737], [-69.23042059316536, 79.90100521784458], [-71.55823017085814, 79.70531266288228]], [[-69.45028196947241, 78.8798362016778], [-70.46572300623339, 79.29301901932182], [-72.63949789883203, 79.08923092616162], [-71.56287946192741, 78.68367045996413], [-69.45028196947241, 78.8798362016778]], [[-65.43554563814027, 65.25656155374391], [-65.80804146492754, 65.66812357159698], [-66.79865248880184, 65.50828558903268], [-66.4117713546207, 65.09968345515462], [-65.43554563814027, 65.25656155374391]], [[-64.7210361649713, 64.4297194660985], [-63.76125536157865, 64.57411570966511], [-64.0947868017978, 64.9890257628901], [-65.06887973531647, 64.84193952697981], [-64.7210361649713, 64.4297194660985]]]}, "properties": {}}, {"type": "Feature", "geometry": {"type": "Polygon", "coordinates": [[[-169.54797009677793, 56.745829534761214], [-169.11234786739365, 56.393688550309676], [-169.74356258572533, 56.15296349143539], [-170.18283896611803, 56.50199548029024], [-169.54797009677793, 56.745829534761214]]]}, "properties": {}}, {"type": "Feature", "geometry": {"type": "Polygon", "coordinates": [[[-170.62826478506375, 56.84697443439361], [-171.0872659901672, 57.193363728395255], [-169.79562667966658, 57.6891010744632], [-169.34390583327936, 57.336311902056465], [-170.62826478506375, 56.84697443439361]]]}, "properties": {}}, {"type": "Feature", "geometry": {"type": "Polygon", "coordinates": [[[-172.40502301695955, 60.97929923060219], [-171.34502348480865, 60.285163714210576], [-172.7253012873522, 59.76392649235742], [-173.79901414236815, 60.44365148849749], [-172.40502301695955, 60.97929923060219]]]}, "properties": {}}, {"type": "Feature", "geometry": {"type": "Polygon", "coordinates": [[[-173.04979650688833, 63.502629835221896], [-171.46881410705873, 64.03491368035276], [-170.88167350102677, 63.680665075090666], [-170.07326802892726, 63.93532487618364], [-169.50799620963969, 63.57506560667945], [-168.6895165785351, 63.82094899544101], [-167.6165766660161, 63.085832059677436], [-169.2162036041817, 62.60342583839282], [-169.75640038261125, 62.96357289918334], [-170.53812020992808, 62.71198677914278], [-171.09871020844452, 63.06643721799206], [-171.87027959988293, 62.80647592292059], [-173.04979650688833, 63.502629835221896]]]}, "properties": {}}, {"type": "Feature", "geometry": {"type": "Polygon", "coordinates": [[[-178.02901463638622, 71.22211648366999], [-178.99893351898757, 71.5484729130656], [-177.9544455241901, 71.85959242063572], [-176.05088106152374, 71.18916855477023], [-178.0909747411752, 70.58571773435891], [-179.0, 70.90110226503076], [-178.02901463638622, 71.22211648366999]]]}, "properties": {}}, {"type": "Feature", "geometry": {"type": "Polygon", "coordinates": [[[-63.99555279965415, 60.84446699176665], [-63.16380971461531, 59.61377174940037], [-65.55702627474075, 59.184885837550105], [-66.16348946468449, 59.99191239923245], [-65.35546224603006, 60.14498336085183], [-65.66117497226897, 60.55002682865931], [-63.99555279965415, 60.84446699176665]]]}, "properties": {}}, {"type": "Feature", "geometry": {"type": "Polygon", "coordinates": [[[-44.99696678324087, 59.33661243301065], [-44.991813719228006, 83.54558430442829], [-40.921984746930036, 83.529169095637], [-40.609384793377, 83.98823036056658], [-31.995081685863795, 83.84833631813245], [-32.89563017235046, 83.39906179642834], [-18.425126128090575, 82.78495611597374], [-19.97380281532799, 82.37096354327157], [-8.737551137118064, 81.4299779570249], [-13.565788453160307, 80.28517956826241], [-17.347452964590882, 79.09000172572846], [-15.248654364955376, 78.87031173341457], [-17.441189828710815, 78.06790466633923], [-15.518200661056518, 77.84986656072645], [-18.429628141273707, 76.64161384757332], [-16.693987595796944, 76.43175354533696], [-18.430010408247917, 75.62398208868554], [-15.250270486767093, 75.19494940755636], [-16.926125387538217, 74.39878961648581], [-18.43339834808751, 74.606913113862], [-21.18997059754996, 72.96932575345329], [-19.794818476320014, 72.78195826341178], [-21.611024579148076, 71.54889142468649], [-20.31940456580937, 71.36560778408607], [-23.427299350691552, 68.88922981776531], [-24.588635171383505, 69.0492677549135], [-25.015429797438365, 68.63015429517309], [-26.173740621517464, 68.77845819271013], [-26.563523371107653, 68.35564992521324], [-27.716891337797847, 68.49242113139205], [-28.070900975830163, 68.066360473443], [-29.217581703006918, 68.19182284903259], [-29.537143943154454, 67.76293073199028], [-31.825667290052177, 67.98316878281518], [-32.59087645055118, 66.68302242974255], [-33.688297619344574, 66.77415907958789], [-34.112756599888044, 65.90495518640887], [-35.17892432878948, 65.98443184034042], [-35.36071731534978, 65.548816678544], [-36.41457871389268, 65.61875460013144], [-36.57126218912884, 65.18222587743332], [-38.65794134326615, 65.2956388709165], [-38.77233664527467, 64.85743071401713], [-39.80368964984172, 64.90126333302123], [-40.15423473094356, 63.151572452614], [-41.11967136634927, 63.18485210987544], [-41.36535272986048, 61.44420580271651], [-42.27195950250097, 61.4683078772591], [-42.43459936801103, 59.738502897274756], [-43.288527567861045, 59.75458267120812], [-43.3136815390368, 59.32393024077517], [-44.99696678324087, 59.33661243301065]]]}, "properties": {}}, {"type": "Feature", "geometry": {"type": "Polygon", "coordinates": [[[-25.5626682963232, 65.405999228778], [-24.830650262652934, 66.2395487172459], [-23.807162793130605, 66.08322141754795], [-22.989965334554768, 66.90727172741575], [-19.91748861577381, 66.37570806247375], [-19.441092651745542, 66.77640469333373], [-17.44814558353977, 66.37999386186489], [-16.928438304601684, 66.7720727444616], [-15.946282863979512, 66.56005019509382], [-15.396399451944582, 66.94675527730865], [-13.462155147538393, 66.49467480862413], [-14.033239682702392, 66.1160659991434], [-12.197509945091381, 65.64890623588164], [-14.885546612878052, 63.769148641710395], [-15.750399187217136, 63.986454399811436], [-16.69845579613055, 63.217942183727516], [-17.559430715368418, 63.422639548757125], [-18.00331953530762, 63.03338943822419], [-19.74589511191573, 63.41891706850289], [-20.156672457115175, 63.02237691240714], [-21.04007058671174, 63.20386510392503], [-20.640146088696017, 63.60352448835006], [-21.53993854871007, 63.780561713122324], [-21.928556638553218, 63.3778732938638], [-23.75205457566562, 63.709212271026104], [-23.01152167192141, 64.5259577358064], [-24.931128564659545, 64.84195834635888], [-24.56987071469779, 65.25552417968083], [-25.5626682963232, 65.405999228778]]]}, "properties": {}}, {"type": "Feature", "geometry": {"type": "Polygon", "coordinates": [[[7.1247225364453195, 59.15962576384921], [6.07219770275495, 59.83480584372558], [4.763444127247729, 59.28566824536277], [4.211779088814455, 59.61441162061173], [4.862092024318963, 59.89427954210824], [3.7289164219390933, 60.54960191528539], [4.396199895334055, 60.83336554555077], [3.8115396153306067, 61.16120251156972], [4.4945904464761925, 61.44520478308052], [3.8979014317661704, 61.77436735255565], [4.597476270352747, 62.05856811799081], [3.988261078544568, 62.3890637661807], [10.172658944254843, 64.54628263730051], [9.580050782804475, 64.90643357885472], [11.306987912808085, 65.40675999713976], [10.710132945540545, 65.77301685879539], [11.608467291359148, 66.01925428022084], [11.000473685161154, 66.38759296940563], [11.926224784656714, 66.63240961652298], [10.666575136762845, 67.37107735454316], [12.616056241397246, 67.86033195007803], [11.972809449506038, 68.2352056137114], [14.032862927412904, 68.70798780857558], [13.38905503963981, 69.08973436933898], [17.846785451060793, 69.96869407967978], [17.237855038760085, 70.36661727057773], [19.655120424780243, 70.76887756713124], [20.22619088528181, 70.36218840263435], [21.444175870301457, 70.5451699945043], [20.894128633007156, 70.95606607262799], [26.11568880520985, 71.61672687774809], [26.566836041874613, 71.19037218752285], [29.250780513812025, 71.45490025189443], [29.625697576340354, 71.02158938912561], [30.96577885501567, 71.13573449964767], [31.609483838278152, 70.26311689721878], [32.907292641425585, 70.36208323904296], [33.44186909637355, 69.48491902014655], [35.962653269975604, 69.64500581559051], [36.16029350031313, 69.20301362494357], [37.40752513795274, 69.26693742306584], [37.57072887992397, 68.8238677046292], [38.79874662318407, 68.87688886759781], [38.92970339677523, 68.43308929464408], [40.13770024220938, 68.47560165201752], [40.23853572624074, 68.03138939754984], [41.42589513108271, 68.06378508263175], [41.568519008063625, 67.17575228879244], [42.70700844801675, 67.19784526200596], [42.66026403778408, 67.6420430671594], [43.82847431699935, 67.65565537862551], [43.804173158338685, 68.09899840570019], [42.6117721813384, 68.08508370057486], [42.50785244443611, 68.9783795088107], [46.2479084482738, 68.99296056174042], [46.22136525854594, 68.5465461010546], [47.43432008645646, 68.53237085911489], [47.600081236662206, 69.87238692510283], [50.197246848443875, 69.81133257209837], [50.082363738359575, 69.36548327669905], [51.342986771055664, 69.32097699255455], [51.20618301078502, 68.87667602464218], [52.42927112007604, 68.8238677046292], [52.59247486204727, 69.26693742306584], [57.526942219376025, 68.95434584551886], [58.088787812465256, 69.82504355608384], [56.81840100841814, 69.92168486011761], [57.09160039105937, 70.36030600457912], [51.78596418846858, 70.65507619736037], [51.949875060864166, 71.10115165848829], [50.56915926813604, 71.15020204425205], [51.16744459297462, 72.94559118011712], [52.6934102432126, 72.89104849079277], [53.363072089567076, 74.23527870771751], [55.00527140707709, 74.16291278320962], [56.30699400288332, 75.9479552248116], [58.13121762885374, 75.85163672911276], [59.03335436231436, 76.73672980786823], [62.81633079733529, 76.48658389597047], [63.432402117460406, 76.91963574658328], [65.32073787942423, 76.76837829219814], [66.79903839757854, 77.61965482089965], [70.64651951874863, 77.25159879805149], [67.48141195481168, 75.58616787080804], [65.77442617565843, 75.75373040573318], [65.13843571499935, 75.32788221800001], [63.437266098468974, 75.47796217323481], [62.88096449100713, 75.04634653960028], [61.19164864371856, 75.17937631434448], [59.82879572607038, 73.86830494419982], [58.24297929322531, 73.97812648958819], [56.31324995197836, 71.33272984764308], [59.03961392685133, 71.13529825745451], [58.71025515563286, 70.69901384864403], [61.31718039647635, 70.46637935166076], [60.948652025505545, 70.035504561199], [65.85296227594073, 69.47007818153178], [66.79796651106832, 70.30313441753482], [65.55259186995534, 70.46524476182326], [67.61828270995547, 72.14038926288208], [70.11327507579617, 73.79355874119702], [72.98375094192909, 73.38810021194564], [72.25950517295985, 72.98750016721641], [73.6092614039388, 72.77671080380247], [75.96263299729618, 73.95457325162332], [77.35189638155495, 73.71596059780256], [76.50861745015374, 73.33191820987116], [77.82756711437713, 73.09217058938422], [79.5914575791459, 73.84494304601573], [80.90907750827093, 73.58365562564059], [85.02531445749607, 75.01257140829534], [88.66765625184502, 76.03020395056872], [90.00008748517266, 75.71228833601597], [92.72086152614814, 76.33919774766933], [90.0, 76.99747791362994], [88.60295521573228, 76.6713418043947], [87.13187951268526, 76.98264351639735], [91.54832500399928, 77.96368804346669], [93.01880194502483, 77.6268786669089], [91.47466838578337, 77.31705458788312], [92.86258200857252, 76.98397268200594], [96.00963392182518, 77.57744991773974], [98.53169486496719, 76.85582811024408], [101.88285600440193, 77.37536701524064], [100.71196617309734, 77.75352876488903], [98.97169758956105, 77.490729284651], [97.68996858213217, 77.85833829167733], [99.45610313396536, 78.12951609936512], [96.709034165479, 78.85917950603374], [94.90557594918464, 78.57133245638273], [96.34648023036189, 78.21806184026501], [94.63496453320317, 77.92626273563116], [93.17348347141092, 78.27191794047701], [94.89257831029666, 78.57155288701136], [93.3660548659037, 78.91600391292666], [91.63639012730182, 78.60707540012743], [89.99325932008838, 78.9363626394248], [91.7287617453385, 79.25498810015687], [88.14500444598137, 79.90222867190074], [89.99236327809287, 80.2314571883744], [88.01717254635354, 80.5500661354079], [89.99181825007787, 80.87995408195675], [87.87042701397431, 81.19843165393272], [90.0, 81.53038619977751], [92.1216357725612, 81.19973783552919], [94.39937952609829, 81.50544523407831], [101.31140178494472, 80.04026386262942], [106.39122832922882, 78.47195001551414], [108.43703253312633, 78.68370642004984], [110.38218923815175, 77.85771567180043], [108.44064084135863, 77.66046728600826], [110.22671835835064, 76.83985517328254], [112.07005644195058, 77.02421061836283], [112.83586354846734, 76.6032841049249], [114.67921326733288, 76.76840954157221], [115.35110162283782, 76.33863069160356], [113.5571713013991, 76.17881206644559], [115.46779299861096, 74.90131158628463], [113.84317455304885, 74.743482296994], [114.44585644548253, 74.32138008470768], [117.64821842665201, 74.61606599798381], [118.61260191119901, 73.74870154580593], [120.1758361073782, 73.87051947908924], [120.96602374722983, 72.99430206255916], [122.46746897028308, 73.09772978567611], [121.75553496135551, 73.97991866221386], [124.99471212725386, 74.16293899384638], [125.27507208598857, 73.71670001722447], [128.48306090878972, 73.84468595410539], [128.66261277969184, 73.39494228591151], [130.2392562000632, 73.43871184713976], [130.71348712905814, 71.63896209469695], [132.13459064440443, 71.66693695591754], [132.06124558183623, 72.11695853922807], [133.53406046047184, 72.13435515613439], [133.57069711698895, 71.68387915988531], [134.99713506778014, 71.68950754134606], [134.99831487957718, 59.336612461369086], [128.2886966242777, 59.13474203807868], [128.08726667130188, 59.99044441949178], [119.74370604108977, 59.15977664725297], [119.2901647137556, 59.990339293343304], [114.44297372525925, 59.184885837550105], [113.83774954321566, 59.99028631519648], [109.17823509417727, 58.959275079752885], [108.43417971365209, 59.73180022024925], [105.46059131849759, 58.9218465686403], [104.62026097256744, 59.667572463401314], [103.17201245495856, 59.222595383951486], [102.26425248092934, 59.95127377457301], [99.46193509007423, 58.98419078411507], [98.47078639955609, 59.68037333955643], [97.12472253644532, 59.15962576384921], [96.07219770275495, 59.83480584372558], [94.76344412724772, 59.28566824536277], [93.65206640696316, 59.93828270978899], [92.38584473507439, 59.36159011738635], [91.21882291672505, 59.990179344900135], [90.0, 59.38694717856246], [88.78117708327495, 59.990179344900135], [87.61415526492561, 59.36159011738635], [86.34793359303686, 59.938282709788986], [85.23655587275228, 59.28566824536277], [83.92780229724505, 59.83480584372558], [82.87527746355468, 59.15962576384921], [81.52921360044394, 59.68037333955643], [80.53806490992577, 58.98419078411507], [77.73574751907066, 59.95127377457301], [76.82798754504144, 59.222595383951486], [75.37973902743256, 59.667572463401314], [74.53940868150244, 58.9218465686403], [71.56582028634791, 59.731800220249255], [70.82176490582276, 58.959275079752885], [66.16225045678434, 59.990286315196485], [65.55702627474076, 59.184885837550105], [60.70983528624441, 59.990339293343304], [60.25629395891024, 59.15977664725297], [51.912733328698124, 59.99044441949178], [51.71130337572232, 59.13474203807868], [45.00000000000001, 59.33660613129206], [38.28869662427768, 59.13474203807868], [38.087266671301876, 59.99044441949178], [29.74370604108977, 59.15977664725297], [29.290164713755587, 59.9903392933433], [22.889639184538833, 58.872108397676726], [22.24810563049824, 59.6676251622258], [20.69460891006192, 59.32367716611608], [20.34325653828488, 59.71574795526596], [19.575381175997073, 59.53403764881657], [19.934762321804204, 59.14470522494376], [19.17823509417725, 58.959275079752885], [18.43417971365208, 59.73180022024925], [15.46059131849758, 58.9218465686403], [14.62026097256744, 59.667572463401314], [13.172012454958564, 59.222595383951486], [12.264252480929343, 59.95127377457301], [9.461935090074233, 58.98419078411507], [8.470786399556076, 59.68037333955643], [7.1247225364453195, 59.15962576384921]], [[22.070559416792452, 64.35794959011638], [21.142475154683964, 64.18341071767748], [21.542019992027303, 63.782874270799276], [23.38260384252761, 64.1187623550662], [23.006210194518914, 64.52694956685767], [23.959822474651165, 64.68835434316301], [23.585838405586287, 65.09739382091314], [21.66866186832282, 64.76258061687858], [22.070559416792452, 64.35794959011638]], [[17.624740366850958, 61.47228653446992], [18.43575182512217, 60.70050081599609], [19.231501182152435, 60.89159132578827], [19.612938603011223, 60.50091798252856], [20.407536047817064, 60.68306962753617], [20.03483039150967, 61.07663357079747], [20.852069169799876, 61.256985180363046], [20.092766172037148, 62.04832706896876], [20.940175808912972, 62.22892018004116], [20.156665475240036, 63.02235834343356], [18.437488550754253, 62.643980078901166], [18.855661792566305, 62.252992082251176], [18.022259916806114, 62.05809023865746], [18.437404321249662, 61.669470885838415], [17.624740366850958, 61.47228653446992]], [[35.364206608501945, 65.55085407112796], [36.418173451712086, 65.6207827430566], [37.47376910690738, 65.68242085011384], [37.3313179662688, 66.11898955248904], [35.183203314229324, 65.98473368157181], [35.364206608501945, 65.55085407112796]], [[38.66167160721805, 65.29760454503624], [38.77600938121944, 64.8593575690585], [39.80331367463964, 64.90301843567065], [39.608744133735115, 65.78010586848846], [37.4785806664386, 65.68090016113811], [37.61577829803074, 65.24487868853903], [38.66167160721805, 65.29760454503624]], [[30.96502688399783, 60.214217769895384], [31.807289521284794, 60.31555959353296], [31.606186081501676, 60.735054975302674], [30.752104989637136, 60.63200911240024], [30.96502688399783, 60.214217769895384]], [[46.17143003958326, 67.65387618314003], [46.14810052897761, 67.21118354522812], [47.28841151404095, 67.1979163527923], [47.33487770253022, 67.64031944807584], [46.17143003958326, 67.65387618314003]], [[49.761476324642324, 68.03140760288429], [49.8618918657593, 68.47380461726722], [47.43898029260589, 68.53051191423049], [47.38842857322965, 68.08684561958454], [49.761476324642324, 68.03140760288429]], [[74.92741892773047, 72.5543870330052], [73.61169310481327, 72.77425960803878], [72.90131445828928, 72.37824530331811], [74.19631406621052, 72.16355299839483], [74.92741892773047, 72.5543870330052]], [[74.74165926353078, 67.93782238599559], [73.7069122688671, 68.15445040232807], [73.14479202617501, 67.76436670555522], [74.16669126895421, 67.55187034533922], [74.74165926353078, 67.93782238599559]], [[73.607367323336, 67.16115508063525], [72.59828186855137, 67.36962145876446], [72.07514112092443, 66.97662681087583], [73.0715399444678, 66.77205633386386], [73.607367323336, 67.16115508063525]], [[134.99541612494292, 69.44496390357266], [134.99531236738878, 69.89090922220835], [134.99531236738875, 69.89090922220835], [134.99541612494292, 69.44496390357266]]]}, "properties": {}}, {"type": "Feature", "geometry": {"type": "Polygon", "coordinates": [[[-3.015193288502285, 59.65267936891886], [-1.8500712386705898, 60.28857454123688], [-2.49203933792662, 60.58268702397236], [-1.2730865830624827, 61.216842741770684], [0.0024911208468314356, 60.60934631267324], [-0.6135956638318987, 60.30177190016518], [0.002438118275684108, 59.997913711132945], [-1.771396739287643, 59.06861482483418], [-3.015193288502285, 59.65267936891886]]]}, "properties": {}}, {"type": "Feature", "geometry": {"type": "Polygon", "coordinates": [[[-8.501135617315693, 61.847465706306714], [-6.789294856551039, 62.889179137659944], [-5.311903601220251, 62.33904975566686], [-6.480499758304362, 61.66303332672358], [-5.771776866265055, 61.390247779390215], [-6.339912266572353, 61.05127170285954], [-8.501135617315693, 61.847465706306714]]]}, "properties": {}}, {"type": "Feature", "geometry": {"type": "Polygon", "coordinates": [[[-9.786244349167116, 70.96079536738486], [-8.130675352060942, 71.68986782870647], [-6.997306505761672, 71.41511627260775], [-8.672595016040658, 70.69712196283918], [-9.786244349167116, 70.96079536738486]]]}, "properties": {}}, {"type": "Feature", "geometry": {"type": "Polygon", "coordinates": [[[10.711991771450446, 77.7535778662463], [8.123685124201673, 78.49830153608308], [10.001413385952404, 78.76662465783853], [8.608858975327035, 79.13822367294784], [10.612701802650992, 79.40326792552516], [9.155141345177922, 79.77792626316662], [21.04046481198405, 80.92769688284], [22.169418601587694, 80.50667780984566], [27.478184467353366, 80.82343264052959], [28.304510652581673, 80.38507967758444], [33.694475402227056, 80.60723100944945], [34.22001088089517, 80.15722254115528], [36.874481797171434, 80.2325588583648], [37.240644464673, 79.77693608058203], [29.75100497599136, 79.50230510529897], [30.969373434935072, 78.61693951537528], [26.562186674554983, 78.36065727098882], [25.01391828599012, 79.22442083733893], [22.75721407453827, 79.06020788879825], [25.911805918173904, 77.34968893838128], [20.22290317122907, 76.8374468383148], [19.357023282741658, 77.2499111745318], [17.531019253615217, 77.04683150585649], [18.44023750136425, 76.64084042925252], [15.016961749418439, 76.2084133518808], [11.882882745685073, 77.37541419721165], [13.665427860713805, 77.61872593965757], [12.52742960124477, 78.00479107973736], [10.711991771450446, 77.7535778662463]]]}, "properties": {}}, {"type": "Feature", "geometry": {"type": "Polygon", "coordinates": [[[19.177462222497006, 74.20010489337177], [18.43036503833649, 74.60857154048968], [19.984779525703114, 74.8067956355714], [20.69990749172622, 74.39289711998792], [19.177462222497006, 74.20010489337177]]]}, "properties": {}}, {"type": "Feature", "geometry": {"type": "Polygon", "coordinates": [[[22.828531068304724, 76.60262726863596], [26.567597882539605, 76.91963574658328], [27.186012474403057, 76.48488026794047], [23.55011130978061, 76.17818310213153], [22.828531068304724, 76.60262726863596]]]}, "properties": {}}, {"type": "Feature", "geometry": {"type": "Polygon", "coordinates": [[[51.00363682906309, 81.19944068401962], [51.33460123201005, 81.65592064609855], [54.45710545137741, 81.5927649096783], [55.002595582681636, 82.04552258951587], [64.44814493359871, 81.69358918998721], [63.44266605466475, 81.25926885311254], [66.25818635951191, 81.1034379306825], [64.29336361590644, 80.24116319845105], [61.70297956240108, 80.38278906915399], [60.25864421750643, 79.50186797342754], [44.99479176626168, 79.87007016999506], [44.994543755470076, 80.32829020199539], [42.26850438380666, 80.31738292030181], [42.13159315096452, 80.77722294533616], [44.99426981925811, 80.78868445441347], [44.993968230413586, 81.24757720230826], [51.00363682906309, 81.19944068401962]]]}, "properties": {}}, {"type": "Feature", "geometry": {"type": "Polygon", "coordinates": [[[78.68908802722763, 75.10461672036512], [81.53362584532749, 74.58133146842741], [80.53845199649172, 74.21321629861868], [77.73046894669552, 74.72330053425094], [78.68908802722763, 75.10461672036512]]]}, "properties": {}}, {"type": "Feature", "geometry": {"type": "Polygon", "coordinates": [[[81.86913363080916, 76.21851550474527], [84.81073714750283, 75.65280561472395], [82.56923096058622, 74.94204775103769], [79.69011158332098, 75.47891588692406], [81.86913363080916, 76.21851550474527]]]}, "properties": {}}, {"type": "Feature", "geometry": {"type": "Polygon", "coordinates": [[[82.30312615656007, 77.85944525257608], [83.99695914791384, 77.57630125099438], [82.6949816050932, 77.21704063830445], [81.02148904913652, 77.49180275928043], [82.30312615656007, 77.85944525257608]]]}, "properties": {}}, {"type": "Feature", "geometry": {"type": "Polygon", "coordinates": [[[75.06668065048869, 79.89308354325613], [77.27405572169499, 79.65596271922257], [79.38726361610473, 79.40332516373151], [78.02527713028013, 79.02106130170759], [73.8039756708277, 79.49259699291284], [75.06668065048869, 79.89308354325613]]]}, "properties": {}}, {"type": "Feature", "geometry": {"type": "Polygon", "coordinates": [[[77.89741738706998, 80.67358114505312], [79.50700298800002, 81.05679792522605], [81.87791921535484, 80.78799636387313], [80.21891601913515, 80.41569515602616], [77.89741738706998, 80.67358114505312]]]}, "properties": {}}, {"type": "Feature", "geometry": {"type": "Polygon", "coordinates": [[[135.0016851204228, 59.336612461369086], [135.00286493221984, 71.68950754134606], [137.8596868380565, 71.66702705265068], [138.00993838536357, 72.5675574810794], [139.51122194530294, 72.53792773880802], [140.03881983083645, 74.33927825775201], [136.68795522759515, 74.39239056325896], [136.59423238819178, 73.48697450682066], [135.00572925964002, 73.49328163578267], [135.0060669688063, 74.40092316211079], [136.6814186388011, 74.39425684829293], [136.7321333752784, 74.8458642781872], [135.0062500698573, 74.85273872031141], [135.00687595190536, 76.2181512618132], [136.90545980914354, 76.21056679278234], [136.97112309365747, 76.6657193573945], [142.85772606986475, 76.54833420412365], [142.59891282562245, 76.09715948929366], [151.69675726767574, 75.61745795095007], [152.23676446002025, 76.05074308597246], [146.684796205997, 76.39218019769527], [147.52566178710185, 77.28519830804713], [151.50941925912554, 77.05597026826094], [150.95029095759725, 76.61835118216527], [154.65875014014745, 76.33973323986335], [152.3562673639376, 74.61379290692], [150.7110442922631, 74.74288365215422], [150.25746913039038, 74.30584790721196], [146.97210480543683, 74.51982143338665], [147.3349416278259, 74.96337155619763], [145.62248284433795, 75.05337138924052], [145.3075964755134, 74.60711097188961], [140.19756827413516, 74.79087391219392], [140.04609905853405, 74.34092502805241], [143.3696704511168, 74.23501492744884], [143.1337816006053, 73.78669202742257], [144.73130453872966, 73.71641951958667], [144.21454573136793, 72.82436748912878], [151.56076304462488, 72.31997609151014], [151.14794273076916, 71.88735791938913], [152.5291765384384, 71.75687756304232], [152.10625448543738, 71.32710398830692], [154.74514497027135, 71.0433181911317], [155.2231823751744, 71.46605522049788], [159.10081779667735, 70.95677927651116], [159.67548079369243, 71.36635920831434], [163.3967118150499, 70.76270362535203], [162.75965910340054, 70.36502918663203], [161.5662712896784, 70.56989763022798], [160.97793951049994, 70.1691818196985], [163.29967530044806, 69.76109237620071], [163.92539231883018, 70.15451620249239], [166.1841471759795, 69.70559058108785], [167.57324081315159, 70.46700970997071], [169.77713903162996, 69.96956172124885], [170.53705833796107, 70.33617520787686], [171.60649409995722, 70.07209871212919], [172.40485619880806, 70.43029628968213], [174.47206569756645, 69.8726954392749], [175.3137942367825, 70.2166312396729], [177.2734754930227, 69.62514296330578], [178.1522706082831, 69.95426869458285], [179.0, 69.67504675674047], [178.2136682963189, 69.32019721221968], [179.0, 69.05303006409366], [178.26776598181257, 68.68858760432056], [179.0, 68.43223887332714], [178.31868428165782, 68.05821921353666], [179.0, 67.81270255917175], [179.0, 67.68143399589474], [178.3666954051068, 67.42912679958988], [179.0, 67.19445036766614], [179.0, 67.04152355464979], [178.4120413571043, 66.8013445344841], [179.0, 66.5775113745873], [179.0, 66.40302954166502], [178.4549380135526, 66.1749060175439], [179.0, 65.96191444945325], [179.0, 65.76598386650993], [178.49557855424402, 65.54984428708994], [179.0, 65.34768822415876], [179.0, 65.13041816832379], [178.53413636852903, 64.926191829412], [179.0, 64.73486106549215], [179.0, 64.4963637823485], [178.57076752582233, 64.30398058556901], [179.0, 64.12346105092607], [179.0, 63.86385171064915], [178.60561288511366, 63.683241956442686], [179.0, 63.51351594719028], [179.0, 63.2329125963646], [178.63879990354948, 63.06400680638981], [179.0, 62.90505319122512], [179.0, 62.60357670095686], [178.67044419299745, 62.446305465775225], [179.0, 62.29809987318655], [179.0, 61.97587388402755], [178.69810648403092, 61.828929272701366], [177.33712415337132, 62.423533157015015], [176.0996829975276, 61.77305579703199], [175.4001169741452, 62.057241097183365], [173.1078769138259, 60.71149670323501], [172.4056932373634, 60.97684865481219], [170.34051021876937, 59.58434214558693], [168.2070783228102, 60.313714228131], [167.7357433605634, 59.95129143989745], [167.00593940721453, 60.182511135489484], [166.10938313646324, 59.44730861428378], [165.37973902743255, 59.66757246340132], [164.9559110810765, 59.29665892853427], [165.67956895431058, 59.079530306935524], [164.84653430813495, 58.33662863591819], [164.13493099025968, 58.54763343923814], [163.74043697977774, 58.17266306311012], [163.0251786794268, 58.37625100422553], [162.64815485095312, 57.99917775226819], [164.05676622727475, 57.59330143398253], [163.30286246418083, 56.84561131851991], [163.98180403356434, 56.64185738203728], [163.25034953332133, 55.8958156486262], [162.58267478210038, 56.09406882763161], [161.8982316776682, 55.34362322983234], [162.55479807907903, 55.15064567745209], [161.56568777563035, 54.026136102430684], [160.92556652088447, 54.211536364760406], [160.31475120541816, 53.45811948714828], [160.94415686213287, 53.27752573143479], [160.64165152976042, 52.9006760084617], [160.01756586228643, 53.07891783278629], [159.7279854486733, 52.70114331915933], [159.10293201417215, 52.873156434455325], [157.77107680208326, 50.97341705705046], [157.16706769549432, 51.13085807259718], [156.92249724506655, 50.7492704708152], [155.70735266330763, 51.04911101958139], [156.42354673948597, 52.2063811396658], [155.79236585754563, 52.355833511823654], [156.03574226396498, 52.74404489191558], [155.39310552272747, 52.891287160456216], [155.88398658801842, 53.6723764403327], [155.2230427623061, 53.81928808413306], [155.4704415164325, 54.21216600145964], [154.79703685776306, 54.356629910585525], [155.55413062311763, 55.542576567827815], [154.85329802179947, 55.68855511325868], [156.50052338804375, 58.07824450981126], [157.2481359797917, 57.918866378559876], [157.5563676195701, 58.31456148542919], [158.3040584778374, 58.1477169938706], [159.6550593054872, 59.71805115205642], [160.42608709681173, 59.53560600760666], [161.1729624013795, 60.31122947510056], [158.7796873566182, 60.85972152964884], [159.14316557672458, 61.25611100645173], [157.48042950451065, 61.59933859133689], [156.47777764929825, 60.39286217484535], [155.65994033513505, 60.54839103903304], [155.05829121350962, 59.73990227372384], [155.8566515790121, 59.58923834151001], [155.5570262747408, 59.184885837550105], [150.70983528624438, 59.990339293343304], [150.25629395891025, 59.15977664725297], [141.91273332869812, 59.99044441949178], [141.7113033757223, 59.13474203807868], [135.0016851204228, 59.336612461369086]], [[135.00349613605036, 63.245958474228324], [135.00355617107954, 63.682356552342334], [135.00349613605033, 63.245958474228324], [135.00349613605036, 63.245958474228324]], [[163.17615416070655, 61.269857025603265], [162.37848656707658, 61.47148710005141], [161.9681298473267, 61.0867490609501], [162.75778143439788, 60.888227036358046], [163.17615416070655, 61.269857025603265]]]}, "properties": {}}, {"type": "Feature", "geometry": {"type": "Polygon", "coordinates": [[[134.99662946176556, 74.40092322185602], [134.99427074035998, 73.49328163578267], [134.9939330311937, 74.40092316211079], [134.99662946176556, 74.40092322185602]]]}, "properties": {}}, {"type": "Feature", "geometry": {"type": "Polygon", "coordinates": [[[134.99618002670655, 76.2181513297916], [134.99374993014274, 74.85273872031141], [134.99312404809464, 76.2181512618132], [134.99618002670655, 76.2181513297916]]]}, "properties": {}}, {"type": "Feature", "geometry": {"type": "Polygon", "coordinates": [[[165.5787003993474, 55.64331384460289], [167.47074289632462, 54.981325843289916], [168.69207088892253, 54.52110836373646], [168.2939734677017, 54.169620989477195], [167.08264818226974, 54.62318802698691], [166.70189605615718, 54.26658823750889], [165.46355652340918, 54.70126071027173], [165.83582152438373, 55.063440203724134], [165.20121669136986, 55.27757997039373], [165.5787003993474, 55.64331384460289]]]}, "properties": {}}, {"type": "Feature", "geometry": {"type": "Polygon", "coordinates": [[[177.59394870272297, 52.47563177390001], [178.09077311064019, 52.193368025677586], [178.55582594595538, 52.49536968625996], [179.0, 52.234522767778394], [179.0, 51.08254032045683], [177.63383064050063, 51.88727839814001], [177.18453547756718, 51.58187740963523], [176.687170731514, 51.85939991094925], [177.59394870272297, 52.47563177390001]]]}, "properties": {}}, {"type": "Feature", "geometry": {"type": "Polygon", "coordinates": [[[172.27843278998427, 52.480693273226535], [171.73090834324483, 52.7319214237041], [172.56833642553022, 53.397732602903666], [173.65958269065496, 52.882933770180884], [174.09365665893165, 53.20740429326404], [174.63094697790638, 52.94197101962028], [173.34579477162427, 51.97202893678102], [172.81383682853163, 52.228717583429244], [173.23191140278996, 52.55580765013783], [172.69448911393482, 52.81064271825843], [172.27843278998427, 52.480693273226535]]]}, "properties": {}}, {"type": "Feature", "geometry": {"type": "Polygon", "coordinates": [[[176.1213444185983, 52.720826005708425], [176.63545860784237, 52.44494614971348], [176.18605192207727, 52.132469673853485], [175.67302461496666, 52.405394393977815], [176.1213444185983, 52.720826005708425]]]}, "properties": {}}, {"type": "Feature", "geometry": {"type": "Polygon", "coordinates": [[[178.0909747411752, 70.58571773435891], [177.0852877447631, 70.8908911576502], [178.02492988525458, 71.22337632942983], [179.0, 70.92263880344517], [178.0909747411752, 70.58571773435891]]]}, "properties": {}}]}