{
"type": "FeatureCollection",
"name": "belgium_coverage",
"crs": { "type": "name", "properties": { "name": "urn:ogc:def:crs:OGC:1.3:CRS84" } },
"features": [
{ "type": "Feature", "properties": { "fid": 1, "DN": 1 }, "geometry": { "type": "Polygon", "coordinates": [ [ [ 2.468255126, 51.059399538 ], [ 2.466273127315611, 51.077630428611492 ], [ 2.395908787853206, 51.195002877210534 ], [ 2.727330739690833, 51.443199780482288 ], [ 3.17671643709779, 51.62177146550453 ], [ 3.373766152441038, 51.480599313852018 ], [ 3.434896916, 51.396049518 ], [ 3.437040836, 51.387072508 ], [ 3.451450826, 51.385162458 ], [ 3.451936556, 51.360213438 ], [ 3.466328556, 51.358321378 ], [ 3.466814286, 51.333372358 ], [ 3.491508336, 51.333552258 ], [ 3.493436376, 51.342565248 ], [ 3.534396496, 51.342853088 ], [ 3.536270566, 51.351848088 ], [ 3.577284656, 51.352135928 ], [ 3.579176716, 51.361130928 ], [ 3.607888756, 51.361328818 ], [ 3.609996696, 51.352351808 ], [ 3.636744716, 51.352513718 ], [ 3.638852656, 51.343536708 ], [ 3.694276736, 51.343860528 ], [ 3.696384676, 51.334883518 ], [ 3.710758686, 51.332955478 ], [ 3.710848636, 51.325978468 ], [ 3.766254726, 51.326284298 ], [ 3.768344676, 51.317307288 ], [ 3.809394746, 51.317505178 ], [ 3.811484696, 51.308528168 ], [ 3.825840716, 51.306582138 ], [ 3.825930666, 51.299605128 ], [ 3.852624716, 51.299713068 ], [ 3.854696676, 51.290736058 ], [ 3.867052696, 51.290790028 ], [ 3.869232596, 51.272836008 ], [ 3.936868776, 51.273087868 ], [ 3.938814806, 51.282082868 ], [ 3.965454886, 51.282172818 ], [ 3.967400916, 51.291167818 ], [ 3.994040996, 51.291257768 ], [ 3.995987026, 51.300252768 ], [ 4.051321156, 51.300414678 ], [ 4.053285176, 51.309409678 ], [ 4.065605216, 51.309445658 ], [ 4.065569236, 51.316440658 ], [ 4.079889276, 51.318476638 ], [ 4.081853296, 51.327453648 ], [ 4.108529356, 51.327525608 ], [ 4.110493376, 51.336520608 ], [ 4.122831406, 51.336538598 ], [ 4.124741456, 51.354528598 ], [ 4.137097476, 51.354546588 ], [ 4.136881596, 51.397485608 ], [ 4.151237616, 51.399503598 ], [ 4.153201636, 51.408498598 ], [ 4.165557656, 51.408516588 ], [ 4.167539666, 51.417511588 ], [ 4.179895686, 51.417529578 ], [ 4.181877696, 51.426524578 ], [ 4.309261776, 51.426650508 ], [ 4.309243786, 51.431645508 ], [ 4.294869776, 51.433645508 ], [ 4.296815806, 51.471589528 ], [ 4.309207806, 51.471589528 ], [ 4.311189816, 51.480584528 ], [ 4.323581816, 51.480584528 ], [ 4.323581816, 51.487579528 ], [ 4.337973816, 51.489579528 ], [ 4.339973816, 51.498574528 ], [ 4.366757816, 51.498574528 ], [ 4.368757816, 51.507551538 ], [ 4.395559806, 51.507551538 ], [ 4.396300506, 51.517068248 ], [ 4.423102496, 51.517068248 ], [ 4.425120486, 51.526045258 ], [ 4.480742456, 51.526011450699997 ], [ 4.482760446, 51.534986288 ], [ 4.5692255539, 51.534878341300001 ], [ 4.5711929641, 51.525883348 ], [ 4.5980208736, 51.525829080800001 ], [ 4.5999614352, 51.516852368 ], [ 4.6123571215, 51.516816333900003 ], [ 4.615601716, 51.509995068 ], [ 4.6155536919, 51.498322668 ], [ 4.6403334393, 51.4982698305 ], [ 4.642385716, 51.507245708 ], [ 4.6547882122, 51.507219179400003 ], [ 4.655554396, 51.516726438 ], [ 4.667964386, 51.516698316499998 ], [ 4.670018356, 51.525667468 ], [ 4.682429568, 51.525651727 ], [ 4.684482316, 51.534626488 ], [ 4.6969006086, 51.534597293799997 ], [ 4.698964266, 51.543567518 ], [ 4.711377257, 51.543542245700003 ], [ 4.713446216, 51.552508548 ], [ 4.7546895781, 51.5523984477 ], [ 4.756766136, 51.561377618 ], [ 4.785611114, 51.5612695218 ], [ 4.7875374542, 51.552288689 ], [ 4.8287547079, 51.55213073 ], [ 4.8306926004, 51.543135758 ], [ 4.8575044157, 51.543027780400003 ], [ 4.8594214805, 51.534032818 ], [ 4.873794196, 51.531978848 ], [ 4.8737327518, 51.524983848 ], [ 4.9007543055, 51.5248424738 ], [ 4.9036296327, 51.5063634288 ], [ 4.957215516, 51.506109382699997 ], [ 4.958128206, 51.524588068 ], [ 4.9849641859, 51.5244670214 ], [ 4.987074116, 51.533439148 ], [ 5.0139018705, 51.533300500599999 ], [ 5.016002036, 51.542272238 ], [ 5.0592697351, 51.542020022099997 ], [ 5.0611459546, 51.533034676 ], [ 5.0879617646, 51.532863149199997 ], [ 5.0898230373, 51.523876858199998 ], [ 5.1166009321, 51.523706487399998 ], [ 5.1184889732, 51.514711558 ], [ 5.1308846736, 51.514621310800003 ], [ 5.1340410655, 51.505102807599997 ], [ 5.1464173638, 51.505014806299997 ], [ 5.1482902248, 51.496019948 ], [ 5.162641636, 51.493929998 ], [ 5.1622269761, 51.468962988 ], [ 5.176565896, 51.466873038 ], [ 5.1761472039, 51.441906028 ], [ 5.190490156, 51.439816078 ], [ 5.1901652258, 51.421777438299998 ], [ 5.1757654694, 51.419917910099997 ], [ 5.1753675467, 51.396973746699999 ], [ 5.1877198141, 51.396876673599998 ], [ 5.189417027, 51.378900033900003 ], [ 5.2022158673, 51.378737393 ], [ 5.2036169015, 51.3698131218 ], [ 5.2446537521, 51.369514197400001 ], [ 5.2465218541, 51.360514022399997 ], [ 5.2732215536, 51.360303090800002 ], [ 5.2750573584, 51.351308388 ], [ 5.287516589, 51.351194557 ], [ 5.2892318691, 51.342213318900001 ], [ 5.3015558444, 51.342115429700002 ], [ 5.3034011077, 51.333113124500002 ], [ 5.317697446, 51.331012558 ], [ 5.3175645476, 51.324012390100002 ], [ 5.3996083041, 51.323326644300003 ], [ 5.3998184346, 51.330685190300002 ], [ 5.4141540305, 51.3321873278 ], [ 5.416315516, 51.341144038 ], [ 5.4430540377, 51.340917656 ], [ 5.445225446, 51.349869188 ], [ 5.545847697, 51.348908809500003 ], [ 5.5475112988, 51.339924289 ], [ 5.5741711946, 51.3396506518 ], [ 5.5759743008, 51.330648470900002 ], [ 5.5883152012, 51.330511290899999 ], [ 5.5898477931, 51.312528286 ], [ 5.6021444022, 51.312395819700001 ], [ 5.6039491884, 51.303392249799998 ], [ 5.6162537247, 51.3032568203 ], [ 5.618044879, 51.294255312700002 ], [ 5.6303404594, 51.294117890800003 ], [ 5.6316478256, 51.2671420844 ], [ 5.6439336703, 51.267007070200002 ], [ 5.6457271518, 51.258001801500001 ], [ 5.6593893996, 51.257282541599999 ], [ 5.6598007409, 51.248858923100002 ], [ 5.6866022591, 51.248537275499999 ], [ 5.6881858985, 51.239555785299999 ], [ 5.7866361183, 51.238382299400001 ], [ 5.7881271649, 51.2294087856 ], [ 5.8147138511, 51.229084135100003 ], [ 5.816474754, 51.220074903499999 ], [ 5.8577146083, 51.219510789399997 ], [ 5.8591182218, 51.210553689599998 ], [ 5.8856873916, 51.2102125814 ], [ 5.8874402391, 51.201202726699997 ], [ 5.8997152695, 51.201037424399999 ], [ 5.901154247, 51.183045379 ], [ 5.915379216, 51.180868018 ], [ 5.9118147007, 51.072936082799998 ], [ 5.8974925262, 51.071187113599997 ], [ 5.896937355, 51.054961005300001 ], [ 5.8826467713, 51.053396782900002 ], [ 5.880115706, 51.035451738 ], [ 5.8678125919, 51.035605491600002 ], [ 5.865579786, 51.026654628 ], [ 5.8532740358, 51.026798623 ], [ 5.8519087621, 50.983812246900001 ], [ 5.837614078, 50.982040961499997 ], [ 5.8356984267, 50.921053438 ], [ 5.8214283574, 50.919305529399999 ], [ 5.819201566, 50.910349278 ], [ 5.8069341274, 50.910492808699999 ], [ 5.8061584747, 50.885444724 ], [ 5.7919014987, 50.883703199899998 ], [ 5.789679976, 50.874747068 ], [ 5.7774244077, 50.874886560599997 ], [ 5.775198026, 50.865931968 ], [ 5.7629526319, 50.866068953800003 ], [ 5.760734066, 50.857116868 ], [ 5.7484858703, 50.857248550500003 ], [ 5.7480767386, 50.8432894615 ], [ 5.7602383278, 50.843144689399999 ], [ 5.7620062822, 50.834134241800001 ], [ 5.8167348494, 50.833465950799997 ], [ 5.8185008966, 50.8244574402 ], [ 5.832625216, 50.822291338 ], [ 5.8324113256, 50.8152926076 ], [ 5.8567667338, 50.814985802599999 ], [ 5.858995446, 50.823931538 ], [ 5.9157816711, 50.823211745099997 ], [ 5.9175320099, 50.814198212400001 ], [ 5.943885052, 50.813838553399997 ], [ 5.9456032944, 50.804832039300003 ], [ 5.959706576, 50.802664248 ], [ 5.959179787, 50.786665344399999 ], [ 5.973271036, 50.784494348 ], [ 5.9727454741, 50.768496274900002 ], [ 5.986835496, 50.766324448 ], [ 5.9864684487, 50.755213844099998 ], [ 6.0192733391, 50.756816605499999 ], [ 6.0416409196, 50.747050161600001 ], [ 6.0425738226, 50.739606492500002 ], [ 6.0360730717, 50.730203822199996 ], [ 6.0397004687, 50.7205444298 ], [ 6.044454356, 50.730437508 ], [ 6.0736033956, 50.722971658 ], [ 6.110765496, 50.725508248 ], [ 6.1202231632, 50.7213932724 ], [ 6.126833676, 50.711131128 ], [ 6.1259046696, 50.707494087299999 ], [ 6.1450474396, 50.690219751599997 ], [ 6.1445063571, 50.686647765899998 ], [ 6.150220676, 50.679375099799998 ], [ 6.1638309232, 50.673000172400002 ], [ 6.1664691645, 50.664345766499999 ], [ 6.187978576, 50.666680948 ], [ 6.1961930096, 50.664458071600002 ], [ 6.1983672226, 50.657482142500001 ], [ 6.1882270557, 50.6500741105 ], [ 6.1856168931, 50.6463224604 ], [ 6.1874665642, 50.642500684399998 ], [ 6.221493946, 50.642700278 ], [ 6.2250449724, 50.649256521600002 ], [ 6.231010656, 50.651317488 ], [ 6.2459226337, 50.642776212299999 ], [ 6.261863506, 50.645362798 ], [ 6.2677392396, 50.643553691599998 ], [ 6.276114696, 50.629942258 ], [ 6.271401316, 50.624518802399997 ], [ 6.2705425304, 50.617840060799999 ], [ 6.2610829396, 50.608307284399999 ], [ 6.2497634895, 50.602996494300001 ], [ 6.251612316, 50.598243878 ], [ 6.2418656945, 50.5848383545 ], [ 6.2373361396, 50.564609574400002 ], [ 6.2294332891, 50.5604833286 ], [ 6.2262183196, 50.553527734399999 ], [ 6.2119441586, 50.552688112799999 ], [ 6.2090918396, 50.545270324400001 ], [ 6.2006719304, 50.539231219800001 ], [ 6.198997267, 50.5308906773 ], [ 6.2087680196, 50.524459891600003 ], [ 6.209101946, 50.519515907100001 ], [ 6.2139311496, 50.5169940416 ], [ 6.2255394238, 50.496831975799999 ], [ 6.251699156, 50.505544518 ], [ 6.261414771, 50.5007970602 ], [ 6.269689156, 50.506551958 ], [ 6.2975196421, 50.499716601300001 ], [ 6.308979316, 50.503493658 ], [ 6.3358996983, 50.491116179400002 ], [ 6.3523102296, 50.489811151600001 ], [ 6.3526340496, 50.486550964400003 ], [ 6.3432137906, 50.482124811299997 ], [ 6.3400483785, 50.474026038 ], [ 6.345843936, 50.468787838 ], [ 6.3429871978, 50.4630877926 ], [ 6.3633715516, 50.455874128 ], [ 6.3732505896, 50.456925431599998 ], [ 6.379485236, 50.438798508 ], [ 6.3777269504, 50.430528180800003 ], [ 6.3687798669, 50.419012692499997 ], [ 6.3706928604, 50.406025800800002 ], [ 6.3597807615, 50.394644736300002 ], [ 6.3583728596, 50.389297024400001 ], [ 6.3459708491, 50.380996979800003 ], [ 6.3622227196, 50.372768211599997 ], [ 6.3715154564, 50.360437178 ], [ 6.3996258532, 50.347363182400002 ], [ 6.402282039, 50.339613258299998 ], [ 6.4100653774, 50.3349457857 ], [ 6.405549636, 50.321338688 ], [ 6.3829921174, 50.320068078299997 ], [ 6.3766327096, 50.312317814399997 ], [ 6.370649036, 50.310544688 ], [ 6.3628433282, 50.312422194299998 ], [ 6.3611293202, 50.310364892199999 ], [ 6.365956756, 50.305456628 ], [ 6.363956756, 50.303402658 ], [ 6.3473267475, 50.312851029900003 ], [ 6.334651046, 50.314358568 ], [ 6.3277703217, 50.322282726499999 ], [ 6.317866376, 50.316967118 ], [ 6.3126104288, 50.3197515329 ], [ 6.307953886, 50.318244408 ], [ 6.3108972496, 50.310266954399999 ], [ 6.2991208564, 50.307451620599998 ], [ 6.2997974196, 50.300894164399999 ], [ 6.2892509145, 50.292960206499998 ], [ 6.290254836, 50.288851858 ], [ 6.2870747888, 50.285121494800002 ], [ 6.2932850396, 50.280515491599999 ], [ 6.2932099304, 50.276102020800003 ], [ 6.2797205796, 50.2648961744 ], [ 6.266307036, 50.262745258 ], [ 6.2580287689, 50.265551698 ], [ 6.245672506, 50.259956808 ], [ 6.2362909438, 50.260282547099997 ], [ 6.2093092629, 50.2513894103 ], [ 6.2019138296, 50.238504844399998 ], [ 6.1967327096, 50.235518504399998 ], [ 6.1774749452, 50.233817338 ], [ 6.1783078004, 50.224794540799998 ], [ 6.1684146669, 50.221325325800002 ], [ 6.1788345832, 50.218356892400003 ], [ 6.1847253402, 50.208865827099999 ], [ 6.1897904932, 50.207077162399997 ], [ 6.1866926162, 50.192881511300001 ], [ 6.194530046, 50.182063218 ], [ 6.184290626, 50.176213358 ], [ 6.1638230104, 50.176541497599999 ], [ 6.160399906, 50.169557058 ], [ 6.1475372715, 50.175552752800002 ], [ 6.1494338504, 50.169439310800001 ], [ 6.1421206977, 50.167668108 ], [ 6.1494704026, 50.159716832500003 ], [ 6.1449754796, 50.154617474399998 ], [ 6.1364917971, 50.153242065900002 ], [ 6.1421061285, 50.150763390599998 ], [ 6.148490526, 50.153875998 ], [ 6.1538284832, 50.1519737924 ], [ 6.156751046, 50.141837578 ], [ 6.1501745896, 50.135008374400002 ], [ 6.140632006, 50.132929418 ], [ 6.137804466, 50.127856238 ], [ 6.1113301824, 50.134774504399999 ], [ 6.113088841, 50.144715319299998 ], [ 6.1194202444, 50.150193898399998 ], [ 6.112957166, 50.155545958 ], [ 6.1175675587, 50.162100157899999 ], [ 6.1020865076, 50.168535845400001 ], [ 6.0818116179, 50.169439644299999 ], [ 6.0801754996, 50.1551032044 ], [ 6.0721806668, 50.155416918 ], [ 6.063559736, 50.151297208 ], [ 6.0308249324, 50.161795484400002 ], [ 6.023438926, 50.180584928 ], [ 6.002213836, 50.174180488 ], [ 5.9663076605, 50.170978028299999 ], [ 5.9647981896, 50.161967944399997 ], [ 5.969259266, 50.155168168 ], [ 5.9624766773, 50.1511355978 ], [ 5.9625748696, 50.129899214399998 ], [ 5.9141815338, 50.119868678 ], [ 5.897461176, 50.111149090399998 ], [ 5.8963865104, 50.100177810799998 ], [ 5.888394216, 50.090168802199997 ], [ 5.8884740596, 50.077548314399998 ], [ 5.8698330512, 50.072069248 ], [ 5.8587043734, 50.063489354799998 ], [ 5.8570170179, 50.059230136099998 ], [ 5.8687390296, 50.051592741599997 ], [ 5.871897386, 50.045932888 ], [ 5.8593824728, 50.035803335 ], [ 5.8613091596, 50.0274641544 ], [ 5.841077406, 50.016390198 ], [ 5.8217917023, 50.012027931600002 ], [ 5.8241748393, 49.999265699799999 ], [ 5.833197602, 49.992633603199998 ], [ 5.8415741296, 49.990822521600002 ], [ 5.8412831404, 49.983152860799997 ], [ 5.8372745196, 49.977595874400002 ], [ 5.819561366, 49.970047958 ], [ 5.8134033329, 49.970475560300002 ], [ 5.8119445996, 49.9626821644 ], [ 5.807094296, 49.960405318 ], [ 5.7954274636, 49.963651308400003 ], [ 5.791263096, 49.959811648 ], [ 5.7779900296, 49.959851181600001 ], [ 5.779248886, 49.957727918 ], [ 5.7727790979, 49.9486543461 ], [ 5.777162046, 49.937705048 ], [ 5.770934396, 49.929678398 ], [ 5.7666855338, 49.929232788 ], [ 5.7635321818, 49.918267328100001 ], [ 5.7654044696, 49.914325044400002 ], [ 5.7499618627, 49.908270505399997 ], [ 5.7385513176, 49.898869855100003 ], [ 5.7789708532, 49.885595862400002 ], [ 5.7848336696, 49.879914171599999 ], [ 5.7859617018, 49.872441118499999 ], [ 5.7785416898, 49.870209044200003 ], [ 5.774424456, 49.865274198 ], [ 5.7702730283, 49.870360218499997 ], [ 5.764574453, 49.867348939 ], [ 5.7563100124, 49.871050611599998 ], [ 5.758956166, 49.865097408 ], [ 5.7570703095, 49.8621132743 ], [ 5.762656361, 49.856031106700001 ], [ 5.7539506815, 49.853910738 ], [ 5.7594497796, 49.850914291599999 ], [ 5.7600768526, 49.845791332499999 ], [ 5.754365606, 49.842876648 ], [ 5.7504365941, 49.8450134916 ], [ 5.7516241296, 49.838191364399997 ], [ 5.7425597426, 49.837497638 ], [ 5.7418634728, 49.834697357499998 ], [ 5.750284986, 49.824583928 ], [ 5.7458301282, 49.820038948499999 ], [ 5.753181376, 49.814851338 ], [ 5.7559366177, 49.793764206399999 ], [ 5.7909780615, 49.797643324600003 ], [ 5.795367926, 49.790690768 ], [ 5.7938395757, 49.787920395500002 ], [ 5.8073211696, 49.775500211599997 ], [ 5.810695406, 49.767349164 ], [ 5.8172876296, 49.763680781600002 ], [ 5.8195665702, 49.755805129599999 ], [ 5.8241477213, 49.751367738 ], [ 5.8319854596, 49.7509798416 ], [ 5.834658086, 49.741470128 ], [ 5.8300157116, 49.738338026400001 ], [ 5.827645096, 49.725642038 ], [ 5.844063746, 49.723285348 ], [ 5.8655071672, 49.728874493 ], [ 5.8766366396, 49.7232752416 ], [ 5.8776848395, 49.716869084300001 ], [ 5.8878643232, 49.711110852399997 ], [ 5.8883481296, 49.707853814400004 ], [ 5.8687887419, 49.692660148 ], [ 5.8640678501, 49.680902571099999 ], [ 5.866667997, 49.677660957299999 ], [ 5.8909046332, 49.672306422399998 ], [ 5.8928073044, 49.6694235744 ], [ 5.9029478215, 49.6700222646 ], [ 5.912270451240936, 49.662834052353304 ], [ 5.907577031539404, 49.659877567501944 ], [ 5.907427636, 49.654758328 ], [ 5.9043208192, 49.651943024600001 ], [ 5.9089826596, 49.637584874399998 ], [ 5.898969226, 49.632375658 ], [ 5.892294936, 49.634246618 ], [ 5.8857636714, 49.631530128 ], [ 5.888772006, 49.627323578 ], [ 5.8777559544, 49.6187466091 ], [ 5.8779319196, 49.607055844400001 ], [ 5.8506362403, 49.596357018100001 ], [ 5.85199766, 49.588936028 ], [ 5.8630275139, 49.588483398400001 ], [ 5.867756576, 49.591652518 ], [ 5.8727148196, 49.589519591600002 ], [ 5.875279506, 49.583643858 ], [ 5.872757796, 49.572343028 ], [ 5.8474495868, 49.560127818 ], [ 5.8480839326, 49.556134342500002 ], [ 5.841958916, 49.551096838 ], [ 5.8254763501, 49.549790664 ], [ 5.818571916, 49.544386568 ], [ 5.7918719505, 49.549724291399997 ], [ 5.7712295995, 49.561304531499999 ], [ 5.758848226, 49.556083178 ], [ 5.7588021396, 49.541410334399998 ], [ 5.747043676, 49.537388458 ], [ 5.7381054683, 49.536725592300002 ], [ 5.731212476, 49.542749478 ], [ 5.720544406, 49.537748258 ], [ 5.704929086, 49.536848758 ], [ 5.6892789599, 49.544152698 ], [ 5.681146306, 49.543361138 ], [ 5.6790385056, 49.546857939699997 ], [ 5.6685505005, 49.546414131399999 ], [ 5.6637383668, 49.550720102299998 ], [ 5.650131546, 49.549117938 ], [ 5.636423166, 49.543019328 ], [ 5.6344012896, 49.5381001744 ], [ 5.6212309438, 49.531140441 ], [ 5.6185067997, 49.527702963300001 ], [ 5.6232089326, 49.518409312499998 ], [ 5.611057266, 49.503963038 ], [ 5.6025190124, 49.507319284399998 ], [ 5.5995346532, 49.515227086400003 ], [ 5.5922214807, 49.520248458899999 ], [ 5.5708869453, 49.525682860300002 ], [ 5.5631009233, 49.523592239 ], [ 5.5562445185, 49.527144040800003 ], [ 5.5471423379, 49.522423432700002 ], [ 5.541022196, 49.513173918 ], [ 5.499591226, 49.504538718 ], [ 5.485055306, 49.505240328 ], [ 5.4802809596, 49.498522174400001 ], [ 5.471355443, 49.494991919 ], [ 5.4635282724, 49.497532724400003 ], [ 5.463381887, 49.5076027036 ], [ 5.4464017924, 49.515684634400003 ], [ 5.4460959624, 49.5193765816 ], [ 5.464597566, 49.527788018 ], [ 5.4642138208, 49.536354103199997 ], [ 5.4401772524, 49.550153474399998 ], [ 5.4528754371, 49.565039088 ], [ 5.4367932088, 49.568110643600001 ], [ 5.427376256, 49.587835528 ], [ 5.4270278409, 49.594697992900002 ], [ 5.4167722624, 49.598510594399997 ], [ 5.4101308658, 49.606513057800001 ], [ 5.4012629588, 49.608156383599997 ], [ 5.3965238676, 49.614108324299998 ], [ 5.3740641929, 49.6216986572 ], [ 5.3631702505, 49.621306501399999 ], [ 5.3514660007, 49.628937991900003 ], [ 5.346175414, 49.627341366 ], [ 5.340487666, 49.614673498 ], [ 5.3112769788, 49.6097934736 ], [ 5.302687566, 49.624517138 ], [ 5.3031140194, 49.630924383500002 ], [ 5.3175394224, 49.648023071600001 ], [ 5.3298973459, 49.6534908251 ], [ 5.3077643092, 49.6702910582 ], [ 5.2927832588, 49.675474963600003 ], [ 5.2692178567, 49.694025649399997 ], [ 5.2572282278, 49.692282358 ], [ 5.242712016, 49.683467258 ], [ 5.2407811347, 49.687720565 ], [ 5.2317040523, 49.6896392449 ], [ 5.2170374805, 49.685926581399997 ], [ 5.2154082688, 49.686700723599998 ], [ 5.2146726024, 49.687219284400001 ], [ 5.2074634941, 49.693565420699997 ], [ 5.2059049576, 49.6940449724 ], [ 5.196171886, 49.689925668 ], [ 5.1913957085, 49.693016648700002 ], [ 5.1639733337, 49.691421696600003 ], [ 5.161717926, 49.700147098 ], [ 5.1638852715, 49.710715008 ], [ 5.1535588635, 49.7167806641 ], [ 5.143677066, 49.707124108 ], [ 5.1395684907, 49.711533052100002 ], [ 5.125956916, 49.710416278 ], [ 5.120970576, 49.717381518 ], [ 5.1228637982, 49.726186568700001 ], [ 5.1170718255, 49.737479024700001 ], [ 5.0927845228, 49.762086881199998 ], [ 5.0885204372, 49.763886332200002 ], [ 5.071860986, 49.758989278 ], [ 5.0626716437, 49.7603953566 ], [ 5.0606420435, 49.765213818 ], [ 5.0124552005, 49.7784671414 ], [ 5.0059346324, 49.781648794399999 ], [ 4.9940699669, 49.798800922 ], [ 4.970101669903394, 49.799246378882749 ], [ 4.962301886, 49.795778828 ], [ 4.955357746, 49.799196928 ], [ 4.9488724228, 49.797182048 ], [ 4.942908666, 49.788492878 ], [ 4.9390091092, 49.791064040499997 ], [ 4.930945316, 49.785020808 ], [ 4.9205029917, 49.786724904099998 ], [ 4.905741326, 49.783509648 ], [ 4.8973492223, 49.786971604500003 ], [ 4.8871728405, 49.786346761399997 ], [ 4.8766300419, 49.791425563600001 ], [ 4.872588866, 49.791461228 ], [ 4.871344446, 49.787305538 ], [ 4.864004526, 49.786837798 ], [ 4.850364033423252, 49.792852980391686 ], [ 4.8608704481, 49.803167347900001 ], [ 4.863263826, 49.813322188 ], [ 4.8740219845, 49.818610832 ], [ 4.867005746, 49.822982818 ], [ 4.864253276, 49.832571488 ], [ 4.865728456, 49.839818348 ], [ 4.854628626, 49.841368598 ], [ 4.845471716, 49.868011788 ], [ 4.848784986, 49.870083748 ], [ 4.8545238285, 49.866800656899997 ], [ 4.8604126184, 49.867858689 ], [ 4.8598769716, 49.872540195200003 ], [ 4.8683330088, 49.881129608 ], [ 4.8674687516, 49.884557515200001 ], [ 4.8762267324, 49.895979241600003 ], [ 4.885278809, 49.899193215300002 ], [ 4.876291696, 49.899311278 ], [ 4.8760648224, 49.905873741599997 ], [ 4.8868680674, 49.9090858689 ], [ 4.8794469424, 49.914828764399999 ], [ 4.8796980526, 49.920903762800002 ], [ 4.8576250724, 49.930138254399999 ], [ 4.8475014346, 49.9462713116 ], [ 4.8398119768, 49.948747798 ], [ 4.8299084929, 49.947122940500002 ], [ 4.7906744805, 49.956082411399997 ], [ 4.788263516, 49.967622418 ], [ 4.7934050287, 49.977009570699998 ], [ 4.7922314224, 49.983590541600002 ], [ 4.805275765, 49.985244911899997 ], [ 4.8165751583, 49.995086974800003 ], [ 4.814025196, 50.000436178 ], [ 4.818857773, 50.011004916499999 ], [ 4.815392436, 50.015295918 ], [ 4.8184968224, 50.027432171599997 ], [ 4.8397728358, 50.039307731 ], [ 4.8387718165, 50.044577928499997 ], [ 4.8261425724, 50.048512454399997 ], [ 4.8269189113, 50.0565051747 ], [ 4.8179031524, 50.059450374400001 ], [ 4.817101486, 50.066081688 ], [ 4.8365655089, 50.069281171900002 ], [ 4.8403632544, 50.077701642400001 ], [ 4.838581546, 50.083010278 ], [ 4.8431518458, 50.0854937378 ], [ 4.8356984116, 50.094194985199998 ], [ 4.8477709175, 50.0997010882 ], [ 4.8482882624, 50.102576401599997 ], [ 4.8594299932, 50.101907622399999 ], [ 4.8633081451, 50.093938191100001 ], [ 4.8709446044, 50.090057749099998 ], [ 4.8726787751, 50.093922286900003 ], [ 4.864972876, 50.097060468 ], [ 4.8712740617, 50.108929182300002 ], [ 4.8651834494, 50.119532783499999 ], [ 4.878396526, 50.133799158 ], [ 4.8847207554, 50.132594744099997 ], [ 4.8943401331, 50.137763373699997 ], [ 4.8799866424, 50.1397937144 ], [ 4.8763457372, 50.151764679199999 ], [ 4.832414086, 50.151225248 ], [ 4.8231382424, 50.159330854399997 ], [ 4.8219514227, 50.164402594199998 ], [ 4.8079406896, 50.151253344399997 ], [ 4.764576906, 50.135251416199999 ], [ 4.7645996304, 50.133495290799999 ], [ 4.7580512704, 50.1209202808 ], [ 4.7576226596, 50.120292554400002 ], [ 4.7529527815, 50.119893249699999 ], [ 4.755294066, 50.116543638 ], [ 4.7531431496, 50.1105059944 ], [ 4.7171565211, 50.099198168 ], [ 4.713194356, 50.094880568 ], [ 4.7035153395, 50.094103747200002 ], [ 4.6938689545, 50.0830131345 ], [ 4.6901570104, 50.071699640799999 ], [ 4.6826304694, 50.067033171399999 ], [ 4.687867546, 50.059383256399997 ], [ 4.696949386, 50.061137548 ], [ 4.702025676, 50.052966978 ], [ 4.6975492259, 50.047245988199997 ], [ 4.6984863804, 50.041710310799999 ], [ 4.6882450344, 50.026650245699997 ], [ 4.688137396, 50.014439026700003 ], [ 4.690925846, 50.011284148 ], [ 4.6874906432, 50.007344338 ], [ 4.6890677685, 50.0020968858 ], [ 4.6956650996, 49.997730681599997 ], [ 4.693279426, 49.993452948 ], [ 4.6672027222, 49.994720157 ], [ 4.633030916, 49.985087598 ], [ 4.5822614161, 49.981504980899999 ], [ 4.564614946, 49.968374888 ], [ 4.542988143, 49.967231981200001 ], [ 4.523597746, 49.948244078 ], [ 4.5186523652, 49.949568569599997 ], [ 4.511238616, 49.944520148 ], [ 4.4808522668, 49.946048058800002 ], [ 4.445503156, 49.935183338 ], [ 4.4170337935, 49.945446838899997 ], [ 4.3900795137, 49.945854266600001 ], [ 4.3812806641, 49.951934862 ], [ 4.371420336, 49.949179558 ], [ 4.3504475437, 49.950333776599997 ], [ 4.3348664204, 49.961554026400002 ], [ 4.3173833733, 49.962962009 ], [ 4.3089438387, 49.967312818400003 ], [ 4.289799706, 49.961610648 ], [ 4.2692484644, 49.963467394600002 ], [ 4.234390506, 49.955655958 ], [ 4.2250619157, 49.957267833499998 ], [ 4.1965086388, 49.9528088036 ], [ 4.192848486, 49.956468618 ], [ 4.1958368085, 49.965807873899998 ], [ 4.1774853305, 49.970096621400003 ], [ 4.1724320588, 49.974941238 ], [ 4.152392086, 49.972548568 ], [ 4.1403817624, 49.976462504399997 ], [ 4.1396801524, 49.980406311599999 ], [ 4.1534033612, 49.986977376299997 ], [ 4.160916236, 49.995884708 ], [ 4.1590009974, 49.999855670800002 ], [ 4.1543896347, 49.997920213 ], [ 4.1409034724, 50.004311024400003 ], [ 4.134255056, 50.013317018 ], [ 4.133829041, 50.020314469299997 ], [ 4.1608363924, 50.050765201600001 ], [ 4.174681696, 50.047591078 ], [ 4.1927291134, 50.051745864 ], [ 4.1974640324, 50.058051151599997 ], [ 4.2230718934, 50.065277223199999 ], [ 4.228972406, 50.073025608499997 ], [ 4.223323546, 50.083814249900001 ], [ 4.2159397624, 50.086687234400003 ], [ 4.2116221185, 50.093674912 ], [ 4.2002524824, 50.098416714400003 ], [ 4.198965086, 50.101324098 ], [ 4.2019868718, 50.104352474499997 ], [ 4.194737436, 50.106415268 ], [ 4.200897113, 50.115334579799999 ], [ 4.2010843492, 50.121099859200001 ], [ 4.195744876, 50.127463568 ], [ 4.1980150876, 50.132671195699999 ], [ 4.1594159958, 50.133099570799999 ], [ 4.154424956, 50.125859348 ], [ 4.1316648005, 50.130099681399997 ], [ 4.125044176, 50.135595048 ], [ 4.1338257613, 50.143784710399999 ], [ 4.1363340124, 50.153398151600001 ], [ 4.1528147764, 50.1629975918 ], [ 4.1530732637, 50.170450518199999 ], [ 4.1461047085, 50.1744944111 ], [ 4.1542082406, 50.184458432600003 ], [ 4.154044056, 50.192461438 ], [ 4.1586819467, 50.197933927299999 ], [ 4.1512098188, 50.205064583599999 ], [ 4.148323236, 50.213617678 ], [ 4.1676322192, 50.218424118 ], [ 4.1739685233, 50.222115585300003 ], [ 4.1803375524, 50.233867421600003 ], [ 4.2183176296, 50.252863095199999 ], [ 4.219563636, 50.257385225199997 ], [ 4.2072418835, 50.270912718 ], [ 4.177416176, 50.273035538 ], [ 4.172627726, 50.278453638 ], [ 4.1742168275, 50.2825139869 ], [ 4.1639420068, 50.286795074799997 ], [ 4.1518411313, 50.275931631299997 ], [ 4.163419956, 50.273869298 ], [ 4.1701412196, 50.267958471599997 ], [ 4.1691157896, 50.258113944400002 ], [ 4.154802746, 50.254433878 ], [ 4.135499476, 50.255405338 ], [ 4.133067716, 50.259636098 ], [ 4.1365999453, 50.262839379600003 ], [ 4.131610526, 50.266688178 ], [ 4.1336913783, 50.272531818 ], [ 4.124039846, 50.270822768 ], [ 4.119881046, 50.277572128 ], [ 4.1239517304, 50.286328313600002 ], [ 4.121050396, 50.296523672699998 ], [ 4.115959226, 50.300942292499997 ], [ 4.1082516224, 50.300480394399997 ], [ 4.097540465, 50.3110653998 ], [ 4.0785107037, 50.307705126599998 ], [ 4.0764665962, 50.319450809199999 ], [ 4.0637957761, 50.328915358300002 ], [ 4.0544795124, 50.330937464400002 ], [ 4.0516778254, 50.337383168899997 ], [ 4.0351563288, 50.341878533600003 ], [ 4.0250397225, 50.356836757700002 ], [ 4.0189377169, 50.3550109062 ], [ 4.017862866, 50.350374548 ], [ 3.9940760701, 50.346483804899997 ], [ 3.985534836, 50.340066278 ], [ 3.97386186, 50.344511754099997 ], [ 3.9666965005, 50.338765691399999 ], [ 3.963565936, 50.341490598 ], [ 3.966627346, 50.347442178 ], [ 3.900927866, 50.324990658 ], [ 3.885672346, 50.324990658 ], [ 3.883150636, 50.328699708 ], [ 3.8878410789, 50.333166990800002 ], [ 3.8841089348, 50.337117908499998 ], [ 3.875687896, 50.335604758 ], [ 3.857158196, 50.340228188 ], [ 3.8547551717, 50.347537604499998 ], [ 3.8466160243, 50.351009597400001 ], [ 3.8264892384, 50.3516150297 ], [ 3.8233659796, 50.3443580044 ], [ 3.815133556, 50.342872718 ], [ 3.809571536, 50.345016638 ], [ 3.8124198594, 50.351476758399997 ], [ 3.8065089818, 50.353344873099999 ], [ 3.798960546, 50.348917358 ], [ 3.7671500052, 50.350653831199999 ], [ 3.763214416, 50.346020968 ], [ 3.7486919776, 50.348808035899999 ], [ 3.7390765494, 50.343174327200003 ], [ 3.7398204196, 50.339824524400001 ], [ 3.7359834151, 50.338193818500002 ], [ 3.7387738504, 50.3349653008 ], [ 3.7316686939, 50.3281946221 ], [ 3.734451516, 50.321575668 ], [ 3.7306675574, 50.315457846599998 ], [ 3.7331461296, 50.309979114400001 ], [ 3.728583666, 50.307486388 ], [ 3.7207615637, 50.309342216600001 ], [ 3.7178209927, 50.3152841725 ], [ 3.7125483026, 50.316784054599999 ], [ 3.722128366, 50.305024868 ], [ 3.7089616488, 50.301401033600001 ], [ 3.7010650584, 50.309204640399997 ], [ 3.6929344824, 50.311760124400003 ], [ 3.6920334083, 50.315268008799997 ], [ 3.6830740388, 50.3184735436 ], [ 3.6825362624, 50.3218745016 ], [ 3.6869213425, 50.322072507199998 ], [ 3.6732894024, 50.331495154400002 ], [ 3.671282406, 50.335122138 ], [ 3.6747527278, 50.339852647 ], [ 3.662683186, 50.347679158 ], [ 3.6653234977, 50.3518744263 ], [ 3.6646799208, 50.361909403200002 ], [ 3.655289296, 50.368565548 ], [ 3.6569724724, 50.375052941600003 ], [ 3.6718623216, 50.389536765199999 ], [ 3.66733929, 50.437427962 ], [ 3.656404676, 50.446714108 ], [ 3.660851038, 50.455093728800001 ], [ 3.6531018243, 50.461078985 ], [ 3.6419868024, 50.461922654399999 ], [ 3.6283547981, 50.479946472199998 ], [ 3.6073162057, 50.494960104900002 ], [ 3.5847751537, 50.488558596600001 ], [ 3.5789119388, 50.489990203600001 ], [ 3.5693190637, 50.498797740800001 ], [ 3.539041026, 50.492333638 ], [ 3.5237500041, 50.493186954599999 ], [ 3.500722326, 50.484687888 ], [ 3.494314776, 50.498903098 ], [ 3.5023664124, 50.5083588416 ], [ 3.5141448634, 50.513846793399999 ], [ 3.5162614726, 50.523025390800001 ], [ 3.5029764431, 50.527551021299999 ], [ 3.491259586, 50.525651118 ], [ 3.4747383608, 50.531219630400003 ], [ 3.4558612582, 50.5181504006 ], [ 3.4503972996, 50.505170614400001 ], [ 3.4354305892, 50.507523340900001 ], [ 3.428942226, 50.502713868 ], [ 3.396038516, 50.494114648 ], [ 3.3916305764, 50.495939704500003 ], [ 3.376172578, 50.489122650200002 ], [ 3.3604464099, 50.502187381900001 ], [ 3.3289689905, 50.5061086714 ], [ 3.318624436, 50.516897926200002 ], [ 3.2871160624, 50.524383934399999 ], [ 3.276779696, 50.538625018 ], [ 3.2786982156, 50.544260606400002 ], [ 3.276239996, 50.551703748 ], [ 3.2784966376, 50.553703748 ], [ 3.273937276, 50.558557938 ], [ 3.2798806288, 50.561583368 ], [ 3.2763580424, 50.562882534400003 ], [ 3.275682306, 50.570017568 ], [ 3.280743128297495, 50.576081251608265 ], [ 3.273703406, 50.581693078 ], [ 3.2760907092, 50.594693510299997 ], [ 3.272570036, 50.596876638 ], [ 3.2678041668, 50.6108241584 ], [ 3.2538705424, 50.621332044399999 ], [ 3.2567232919, 50.628141568700002 ], [ 3.242112966, 50.640682288 ], [ 3.247348056, 50.648112158 ], [ 3.238065216, 50.658618318 ], [ 3.2397483924, 50.670232861599999 ], [ 3.2595996739, 50.677708818 ], [ 3.248661326, 50.691234188 ], [ 3.248499416, 50.698211198 ], [ 3.236287316, 50.698085268 ], [ 3.234125406, 50.707062278 ], [ 3.136982516, 50.706072828 ], [ 3.134802616, 50.715049838 ], [ 3.120590516, 50.716905918 ], [ 3.120410616, 50.723882928 ], [ 3.039443846, 50.722983428 ], [ 3.037641736, 50.713970438 ], [ 3.023627526, 50.713808528 ], [ 3.021285716, 50.722785538 ], [ 2.982811326, 50.722335788 ], [ 2.981009216, 50.713322798 ], [ 2.954764916, 50.712998978 ], [ 2.952962806, 50.703985988 ], [ 2.940876636, 50.703842068 ], [ 2.941632216, 50.678857068 ], [ 2.927546046, 50.676713148 ], [ 2.925761926, 50.667700158 ], [ 2.899550496, 50.667376338 ], [ 2.897751496, 50.658345358 ], [ 2.827050796, 50.657445858 ], [ 2.824816926, 50.666404878 ], [ 2.770184406, 50.665667288 ], [ 2.767950536, 50.674626308 ], [ 2.753738436, 50.676464398 ], [ 2.753504566, 50.683423418 ], [ 2.727134336, 50.683063618 ], [ 2.723964986, 50.718971658 ], [ 2.697576766, 50.718611858 ], [ 2.695001086, 50.736547888 ], [ 2.682770996, 50.736385978 ], [ 2.680519136, 50.745344998 ], [ 2.666289046, 50.747165098 ], [ 2.665713366, 50.763101128 ], [ 2.596778796, 50.762093688 ], [ 2.594512056, 50.771034718 ], [ 2.580260866, 50.772854818 ], [ 2.580009006, 50.779813838 ], [ 2.567742936, 50.779633938 ], [ 2.565491076, 50.788592958 ], [ 2.553225006, 50.788395068 ], [ 2.550613346, 50.806331098 ], [ 2.536347276, 50.808151198 ], [ 2.535735616, 50.824087228 ], [ 2.521469546, 50.825907328 ], [ 2.518375266, 50.904739508 ], [ 2.504073216, 50.906556498 ], [ 2.503353616, 50.924528508 ], [ 2.517493756, 50.926726398 ], [ 2.516522296, 50.951711398 ], [ 2.530662436, 50.953909288 ], [ 2.530464546, 50.958886298 ], [ 2.518162496, 50.958706398 ], [ 2.515892646, 50.967647428 ], [ 2.503572606, 50.967467528 ], [ 2.500583156, 50.994380568 ], [ 2.485039796, 50.996722378 ], [ 2.482611146, 51.057546568 ], [ 2.468255126, 51.059399538 ] ], [ [ 4.7596759006, 50.124202919799998 ], [ 4.7597164958, 50.1241893881 ], [ 4.7596788862, 50.124208192899999 ], [ 4.7596759006, 50.124202919799998 ] ], [ [ 4.8366989239, 50.069516169099998 ], [ 4.8366991987, 50.069516613700003 ], [ 4.8366957062, 50.069517777900003 ], [ 4.8366989239, 50.069516169099998 ] ], [ [ 5.2159428961, 49.686474698200001 ], [ 5.2159445049, 49.686477915899999 ], [ 5.2159440603, 49.686478190700001 ], [ 5.2159428961, 49.686474698200001 ] ], [ [ 6.1928450623, 50.523057974300002 ], [ 6.2039579371, 50.522940848 ], [ 6.1950508791, 50.528943288 ], [ 6.1900977777, 50.526794715100003 ], [ 6.1928450623, 50.523057974300002 ] ], [ [ 6.1954831736, 50.538437368399997 ], [ 6.205153676, 50.547596839699999 ], [ 6.2090518624, 50.556122291599998 ], [ 6.2242330847, 50.557260556300001 ], [ 6.2255666824, 50.563875981599999 ], [ 6.2338279247, 50.567519707400002 ], [ 6.2376365834, 50.585822328200003 ], [ 6.2265425374, 50.5883857436 ], [ 6.2210192096, 50.580206904400001 ], [ 6.2087211444, 50.574606003600003 ], [ 6.2045403696, 50.567901744399997 ], [ 6.1780178905, 50.556955050699997 ], [ 6.180533826, 50.553862548 ], [ 6.1801769885, 50.543143106300001 ], [ 6.188464306, 50.542549948 ], [ 6.1954831736, 50.538437368399997 ] ], [ [ 6.2349375182, 50.628217859499998 ], [ 6.27161767, 50.629826736799998 ], [ 6.264033827270359, 50.6417290738312 ], [ 6.2450255248, 50.638526123 ], [ 6.2314996278, 50.646928225800004 ], [ 6.220234646, 50.638232538 ], [ 6.1888011329, 50.637705070499997 ], [ 6.181252251432237, 50.644352954136778 ], [ 6.1722754587, 50.641997402500003 ], [ 6.1847333796, 50.6335692416 ], [ 6.1815204129, 50.626043539299999 ], [ 6.194149146, 50.635900058 ], [ 6.2176074473, 50.634185263 ], [ 6.2349375182, 50.628217859499998 ] ], [ [ 6.1708996528, 50.660342248 ], [ 6.1849597651, 50.653029890500001 ], [ 6.194146036, 50.658942138 ], [ 6.191148434, 50.662129112099997 ], [ 6.1708996528, 50.660342248 ] ], [ [ 3.7524384061, 50.348434738199998 ], [ 3.752440577, 50.34843908 ], [ 3.7524399062, 50.348439238399997 ], [ 3.7524384061, 50.348434738199998 ] ] ] } }
]
}
